{"type": "FeatureCollection", "features": [{"type": "Feature", "geometry": {"type": "Point", "coordinates": [128.5674, 35.1969]}, "properties": {"osmid": 358015271, "cellid": 0, "name": "마산합포구", "name:ko": "마산합포구", "name:en": "Masanhappo-gu"}}, {"type": "Feature", "geometry": {"type": "Point", "coordinates": [129.0926, 35.2429]}, "properties": {"osmid": 414979634, "cellid": 1, "name": "금정구", "name:ko": "금정구", "name:en": "Geumjeong District"}}, {"type": "Feature", "geometry": {"type": "Point", "coordinates": [129.0325814, 35.106501]}, "properties": {"osmid": 415144954, "cellid": 2, "name": "중구", "name:ko": "중구", "name:en": "Jung District"}}, {"type": "Feature", "geometry": {"type": "Point", "coordinates": [129.0678, 35.0908]}, "properties": {"osmid": 415144974, "cellid": 3, "name": "영도구", "name:ko": "영도구", "name:en": "Yeongdo District"}}, {"type": "Feature", "geometry": {"type": "Point", "coordinates": [129.0241, 35.0974999]}, "properties": {"osmid": 415144995, "cellid": 4, "name": "서구", "name:ko": "서구", "name:en": "Seo District"}}, {"type": "Feature", "geometry": {"type": "Point", "coordinates": [128.9901999, 35.1969]}, "properties": {"osmid": 415145007, "cellid": 5, "name": "북구", "name:ko": "북구", "name:en": "Buk District"}}, {"type": "Feature", "geometry": {"type": "Point", "coordinates": [129.0455, 35.129]}, "properties": {"osmid": 415145016, "cellid": 6, "name": "동구", "name:ko": "동구", "name:en": "Dong District"}}, {"type": "Feature", "geometry": {"type": "Point", "coordinates": [129.0529462, 35.1632335]}, "properties": {"osmid": 415145021, "cellid": 7, "name": "부산진구", "name:ko": "부산진구", "name:en": "Busanjin District"}}, {"type": "Feature", "geometry": {"type": "Point", "coordinates": [129.0843999, 35.1361]}, "properties": {"osmid": 415145033, "cellid": 8, "name": "남구", "name:ko": "남구", "name:en": "Nam District"}}, {"type": "Feature", "geometry": {"type": "Point", "coordinates": [129.0793, 35.1765]}, "properties": {"osmid": 415145047, "cellid": 9, "name": "연제구", "name:ko": "연제구", "name:en": "Yeonje District"}}, {"type": "Feature", "geometry": {"type": "Point", "coordinates": [129.0837, 35.2052]}, "properties": {"osmid": 415145052, "cellid": 10, "name": "동래구", "name:ko": null, "name:en": "Dongnae District"}}, {"type": "Feature", "geometry": {"type": "Point", "coordinates": [129.1127, 35.1454]}, "properties": {"osmid": 415145063, "cellid": 11, "name": "수영구", "name:ko": "수영구", "name:en": "Suyeong District"}}, {"type": "Feature", "geometry": {"type": "Point", "coordinates": [128.9805, 35.212]}, "properties": {"osmid": 415145135, "cellid": 12, "name": "강서구", "name:ko": "강서구", "name:en": "Gangseo District"}}, {"type": "Feature", "geometry": {"type": "Point", "coordinates": [128.9751, 35.1041]}, "properties": {"osmid": 415145184, "cellid": 13, "name": "사하구", "name:ko": null, "name:en": "Saha District"}}, {"type": "Feature", "geometry": {"type": "Point", "coordinates": [128.9911, 35.1521]}, "properties": {"osmid": 415145189, "cellid": 14, "name": "사상구", "name:ko": "사상구", "name:en": "Sasang District"}}, {"type": "Feature", "geometry": {"type": "Point", "coordinates": [126.7938, 35.1396]}, "properties": {"osmid": 415146173, "cellid": 15, "name": "광산구", "name:ko": "광산구", "name:en": "Gwangsan-gu"}}, {"type": "Feature", "geometry": {"type": "Point", "coordinates": [126.9229, 35.1462]}, "properties": {"osmid": 415146372, "cellid": 16, "name": "동구", "name:ko": "동구", "name:en": "Dong-gu"}}, {"type": "Feature", "geometry": {"type": "Point", "coordinates": [128.5331, 35.8296]}, "properties": {"osmid": 415148680, "cellid": 17, "name": "달서구", "name:ko": null, "name:en": "Dalseo-gu"}}, {"type": "Feature", "geometry": {"type": "Point", "coordinates": [128.5591, 35.8716]}, "properties": {"osmid": 415148724, "cellid": 18, "name": "서구", "name:ko": "서구", "name:en": "Seo-gu"}}, {"type": "Feature", "geometry": {"type": "Point", "coordinates": [128.606, 35.8693]}, "properties": {"osmid": 415148756, "cellid": 19, "name": "중구청", "name:ko": "중구", "name:en": "Jung-gu"}}, {"type": "Feature", "geometry": {"type": "Point", "coordinates": [128.5977, 35.8457]}, "properties": {"osmid": 415148794, "cellid": 20, "name": "남구", "name:ko": "남구", "name:en": "Nam-gu"}}, {"type": "Feature", "geometry": {"type": "Point", "coordinates": [128.6305, 35.8584]}, "properties": {"osmid": 415148833, "cellid": 21, "name": "수성구", "name:ko": "수성구", "name:en": "Suseong-gu"}}, {"type": "Feature", "geometry": {"type": "Point", "coordinates": [128.6355, 35.8865]}, "properties": {"osmid": 415148854, "cellid": 22, "name": "동구", "name:ko": "동구", "name:en": "Donggu"}}, {"type": "Feature", "geometry": {"type": "Point", "coordinates": [127.1197, 35.8122]}, "properties": {"osmid": 415150274, "cellid": 23, "name": "완산구", "name:ko": "완산구", "name:en": "Wansan-gu"}}, {"type": "Feature", "geometry": {"type": "Point", "coordinates": [129.3304, 35.5436]}, "properties": {"osmid": 415150395, "cellid": 24, "name": "남구", "name:ko": "남구", "name:en": "Nam-gu"}}, {"type": "Feature", "geometry": {"type": "Point", "coordinates": [129.333, 35.5691]}, "properties": {"osmid": 415150447, "cellid": 25, "name": "중구", "name:ko": "중구", "name:en": "Jung-gu"}}, {"type": "Feature", "geometry": {"type": "Point", "coordinates": [129.3604, 35.5826]}, "properties": {"osmid": 415150467, "cellid": 26, "name": "북구", "name:ko": "북구", "name:en": "Buk-gu"}}, {"type": "Feature", "geometry": {"type": "Point", "coordinates": [126.676, 37.545]}, "properties": {"osmid": 415153385, "cellid": 27, "name": "서구", "name:ko": "서구", "name:en": "Seo-gu"}}, {"type": "Feature", "geometry": {"type": "Point", "coordinates": [126.8497, 37.5509]}, "properties": {"osmid": 415153600, "cellid": 28, "name": "강서구", "name:ko": "강서구", "name:en": "Gangseo-gu"}}, {"type": "Feature", "geometry": {"type": "Point", "coordinates": [126.8663, 37.5171]}, "properties": {"osmid": 415153606, "cellid": 29, "name": "양천구", "name:ko": "양천구", "name:en": "Yangcheon-gu"}}, {"type": "Feature", "geometry": {"type": "Point", "coordinates": [126.8959, 37.5262]}, "properties": {"osmid": 415153646, "cellid": 30, "name": "영등포구", "name:ko": "영등포구", "name:en": "Yeongdeungpo-gu"}}, {"type": "Feature", "geometry": {"type": "Point", "coordinates": [126.9293, 37.6024]}, "properties": {"osmid": 415153669, "cellid": 31, "name": "은평구", "name:ko": "은평구", "name:en": "Eunpyeong-gu"}}, {"type": "Feature", "geometry": {"type": "Point", "coordinates": [126.8322, 37.6369]}, "properties": {"osmid": 415153685, "cellid": 32, "name": "덕양구", "name:ko": "덕양구", "name:en": "Deogyang-gu"}}, {"type": "Feature", "geometry": {"type": "Point", "coordinates": [126.775, 37.6588]}, "properties": {"osmid": 415153708, "cellid": 33, "name": "일산동구", "name:ko": "일산동구", "name:en": "Ilsandong-gu"}}, {"type": "Feature", "geometry": {"type": "Point", "coordinates": [126.9827989, 37.5806949]}, "properties": {"osmid": 415153766, "cellid": 34, "name": "종로구", "name:ko": "종로구", "name:en": "Jongno-gu"}}, {"type": "Feature", "geometry": {"type": "Point", "coordinates": [126.9367861, 37.5790747]}, "properties": {"osmid": 415153807, "cellid": 35, "name": "서대문구", "name:ko": "서대문구", "name:en": "Seodaemun-gu"}}, {"type": "Feature", "geometry": {"type": "Point", "coordinates": [126.9975097, 37.5636559]}, "properties": {"osmid": 415153886, "cellid": 36, "name": "중구", "name:ko": "중구", "name:en": "Jung-gu"}}, {"type": "Feature", "geometry": {"type": "Point", "coordinates": [127.0365, 37.5635]}, "properties": {"osmid": 415154027, "cellid": 37, "name": "성동구", "name:ko": "성동구", "name:en": "Seongdong-gu"}}, {"type": "Feature", "geometry": {"type": "Point", "coordinates": [127.0395, 37.5742]}, "properties": {"osmid": 415154036, "cellid": 38, "name": "동대문구", "name:ko": "동대문구", "name:en": "Dongdaemu-gu"}}, {"type": "Feature", "geometry": {"type": "Point", "coordinates": [127.0828, 37.5384]}, "properties": {"osmid": 415154041, "cellid": 39, "name": "광진구", "name:ko": "광진구", "name:en": "Gwangjin-gu"}}, {"type": "Feature", "geometry": {"type": "Point", "coordinates": [127.1058, 37.5145]}, "properties": {"osmid": 415154061, "cellid": 40, "name": "송파구", "name:ko": "송파구", "name:en": "Songpa-gu"}}, {"type": "Feature", "geometry": {"type": "Point", "coordinates": [127.1237, 37.53]}, "properties": {"osmid": 415154068, "cellid": 41, "name": "강동구", "name:ko": "강동구", "name:en": "Gangdong-gu"}}, {"type": "Feature", "geometry": {"type": "Point", "coordinates": [127.093, 37.6063]}, "properties": {"osmid": 415154089, "cellid": 42, "name": "중랑구", "name:ko": "중랑구", "name:en": "Jungnang-gu"}}, {"type": "Feature", "geometry": {"type": "Point", "coordinates": [127.0567, 37.654]}, "properties": {"osmid": 415154105, "cellid": 43, "name": "노원구", "name:ko": "노원구", "name:en": "Nowon-gu"}}, {"type": "Feature", "geometry": {"type": "Point", "coordinates": [127.0165, 37.59]}, "properties": {"osmid": 415154125, "cellid": 44, "name": "성북구", "name:ko": "성북구", "name:en": "Seongbuk-gu"}}, {"type": "Feature", "geometry": {"type": "Point", "coordinates": [127.0255, 37.6395]}, "properties": {"osmid": 415154132, "cellid": 45, "name": "강북구", "name:ko": "강북구", "name:en": "Gangbuk-gu"}}, {"type": "Feature", "geometry": {"type": "Point", "coordinates": [127.0466, 37.6686]}, "properties": {"osmid": 415154134, "cellid": 46, "name": "도봉구", "name:ko": "도봉구", "name:en": "Dobong-gu"}}, {"type": "Feature", "geometry": {"type": "Point", "coordinates": [126.6787, 37.4098]}, "properties": {"osmid": 415154829, "cellid": 47, "name": "연수구", "name:ko": "연수구", "name:en": "Yeonsu-gu"}}, {"type": "Feature", "geometry": {"type": "Point", "coordinates": [126.6214081, 37.4735389]}, "properties": {"osmid": 415154839, "cellid": 48, "name": "중구", "name:ko": "중구", "name:en": "Jung-gu"}}, {"type": "Feature", "geometry": {"type": "Point", "coordinates": [126.6502, 37.4636]}, "properties": {"osmid": 415154901, "cellid": 49, "name": "미추홀구", "name:ko": "미추홀구", "name:en": "Michuhol-gu"}}, {"type": "Feature", "geometry": {"type": "Point", "coordinates": [126.7315126, 37.446902]}, "properties": {"osmid": 415154908, "cellid": 50, "name": "남동구", "name:ko": "남동구", "name:en": "Namdong-gu"}}, {"type": "Feature", "geometry": {"type": "Point", "coordinates": [126.7220068, 37.5070221]}, "properties": {"osmid": 415154913, "cellid": 51, "name": "부평구", "name:ko": "부평구", "name:en": "Bupyeong-gu"}}, {"type": "Feature", "geometry": {"type": "Point", "coordinates": [127.0104461, 37.3034842]}, "properties": {"osmid": 415155209, "cellid": 52, "name": "장안구", "name:ko": "장안구", "name:en": "Jangan-gu"}}, {"type": "Feature", "geometry": {"type": "Point", "coordinates": [127.1148, 37.2801]}, "properties": {"osmid": 415155233, "cellid": 53, "name": "기흥구", "name:ko": "기흥구", "name:en": "Giheung-gu"}}, {"type": "Feature", "geometry": {"type": "Point", "coordinates": [127.0322, 37.4835]}, "properties": {"osmid": 415155299, "cellid": 54, "name": "서초구", "name:ko": "서초구", "name:en": "Seocho-gu"}}, {"type": "Feature", "geometry": {"type": "Point", "coordinates": [127.3563, 36.3622]}, "properties": {"osmid": 415161419, "cellid": 55, "name": "유성구", "name:ko": "유성구", "name:en": "Yuseong-gu"}}, {"type": "Feature", "geometry": {"type": "Point", "coordinates": [126.9518, 37.4782]}, "properties": {"osmid": 1908020019, "cellid": 56, "name": "관악구", "name:ko": "관악구", "name:en": "Gwanak-gu"}}, {"type": "Feature", "geometry": {"type": "Point", "coordinates": [127.0473, 37.5177]}, "properties": {"osmid": 1912558042, "cellid": 57, "name": "강남구", "name:ko": "강남구", "name:en": "Gangnam-gu"}}, {"type": "Feature", "geometry": {"type": "Point", "coordinates": [126.9395, 37.5120999]}, "properties": {"osmid": 1918413460, "cellid": 58, "name": "동작구", "name:ko": "동작구", "name:en": "Dongjak-gu"}}, {"type": "Feature", "geometry": {"type": "Point", "coordinates": [126.8954, 37.4565]}, "properties": {"osmid": 1968205548, "cellid": 59, "name": "금천구", "name:ko": "금천구", "name:en": "Geumcheon-gu"}}, {"type": "Feature", "geometry": {"type": "Point", "coordinates": [126.8877, 37.4951999]}, "properties": {"osmid": 1968205550, "cellid": 60, "name": "구로구", "name:ko": "구로구", "name:en": "Guro-gu"}}, {"type": "Feature", "geometry": {"type": "Point", "coordinates": [126.99, 37.5323]}, "properties": {"osmid": 1968205562, "cellid": 61, "name": "용산구", "name:ko": "용산구", "name:en": "Yongsan-gu"}}, {"type": "Feature", "geometry": {"type": "Point", "coordinates": [127.4315, 36.6414]}, "properties": {"osmid": 1991827577, "cellid": 62, "name": "흥덕구", "name:ko": "흥덕구", "name:en": "Heungdeok-gu"}}, {"type": "Feature", "geometry": {"type": "Point", "coordinates": [127.5055, 36.5897999]}, "properties": {"osmid": 1991827579, "cellid": 63, "name": "상당구", "name:ko": "상당구", "name:en": "Sangdang-gu"}}, {"type": "Feature", "geometry": {"type": "Point", "coordinates": [127.1516634, 36.8067134]}, "properties": {"osmid": 1992319537, "cellid": 64, "name": "동남구", "name:ko": "동남구", "name:en": "Dongnam-gu"}}, {"type": "Feature", "geometry": {"type": "Point", "coordinates": [127.1552727, 36.8783935]}, "properties": {"osmid": 1992319539, "cellid": 65, "name": "서북구", "name:ko": "서북구", "name:en": "Seobuk-gu"}}, {"type": "Feature", "geometry": {"type": "Point", "coordinates": [126.7379078, 37.5373539]}, "properties": {"osmid": 2378589326, "cellid": 66, "name": "계양구", "name:ko": "계양구", "name:en": "Gyeyang-gu"}}, {"type": "Feature", "geometry": {"type": "Point", "coordinates": [129.1638, 35.1629]}, "properties": {"osmid": 2591212619, "cellid": 67, "name": "해운대구", "name:ko": "해운대구", "name:en": "Haeundae District"}}, {"type": "Feature", "geometry": {"type": "Point", "coordinates": [130.9028503, 37.4839732]}, "properties": {"osmid": 2852398665, "cellid": 68, "name": "울릉군", "name:ko": "울릉군", "name:en": "Ulleung-gun"}}, {"type": "Feature", "geometry": {"type": "Point", "coordinates": [128.6401, 35.2537]}, "properties": {"osmid": 2921377677, "cellid": 69, "name": "의창구", "name:ko": "의창구", "name:en": "Uichang-gu"}}, {"type": "Feature", "geometry": {"type": "Point", "coordinates": [128.5797, 35.2212]}, "properties": {"osmid": 2921396548, "cellid": 70, "name": "마산회원구", "name:ko": "마산회원구", "name:en": "Masanhoewon-gu"}}, {"type": "Feature", "geometry": {"type": "Point", "coordinates": [126.9513089, 37.3923137]}, "properties": {"osmid": 3822754078, "cellid": 71, "name": "동안구", "name:ko": "동안구", "name:en": "Dongan-gu"}}, {"type": "Feature", "geometry": {"type": "Point", "coordinates": [126.7504457, 37.6751449]}, "properties": {"osmid": 3830221566, "cellid": 72, "name": "일산서구", "name:ko": "일산서구", "name:en": "Ilsanseo-gu"}}, {"type": "Feature", "geometry": {"type": "Point", "coordinates": [126.9324, 37.3863]}, "properties": {"osmid": 3832488846, "cellid": 73, "name": "만안구", "name:ko": "만안구", "name:en": "Manan-gu"}}, {"type": "Feature", "geometry": {"type": "Point", "coordinates": [127.4867, 36.6515]}, "properties": {"osmid": 4418986323, "cellid": 74, "name": "청원구", "name:ko": "청원구", "name:en": "Cheongwon-gu"}}, {"type": "Feature", "geometry": {"type": "Point", "coordinates": [127.4698, 36.6374]}, "properties": {"osmid": 4418986355, "cellid": 75, "name": "서원구", "name:ko": "서원구", "name:en": "Seowon-gu"}}, {"type": "Feature", "geometry": {"type": "Point", "coordinates": [128.5829, 35.8855]}, "properties": {"osmid": 4502273483, "cellid": 76, "name": "북구", "name:ko": "북구", "name:en": "Buk-gu"}}, {"type": "Feature", "geometry": {"type": "Point", "coordinates": [126.9015317, 37.566571]}, "properties": {"osmid": 4657892093, "cellid": 77, "name": "마포구", "name:ko": "마포구", "name:en": "Mapo-gu"}}, {"type": "Feature", "geometry": {"type": "Point", "coordinates": [127.2017, 37.2345]}, "properties": {"osmid": 4686284674, "cellid": 78, "name": "처인구", "name:ko": "처인구", "name:en": "Cheoin-gu"}}, {"type": "Feature", "geometry": {"type": "Point", "coordinates": [127.0466, 37.2593]}, "properties": {"osmid": 4686284676, "cellid": 79, "name": "영통구", "name:ko": "영통구", "name:en": "Yeongtong-gu"}}, {"type": "Feature", "geometry": {"type": "Point", "coordinates": [127.0195459, 37.2821877]}, "properties": {"osmid": 4686284677, "cellid": 80, "name": "팔달구", "name:ko": "팔달구", "name:en": "Paldal-gu"}}, {"type": "Feature", "geometry": {"type": "Point", "coordinates": [126.9719715, 37.2567361]}, "properties": {"osmid": 4686284685, "cellid": 81, "name": "권선구", "name:ko": "권선구", "name:en": "Gwonseon-gu"}}, {"type": "Feature", "geometry": {"type": "Point", "coordinates": [126.8465, 37.3007]}, "properties": {"osmid": 4705474253, "cellid": 82, "name": "상록구", "name:ko": "상록구", "name:en": "Sangnok-gu"}}, {"type": "Feature", "geometry": {"type": "Point", "coordinates": [126.8122, 37.319]}, "properties": {"osmid": 4705474254, "cellid": 83, "name": "단원구", "name:ko": "단원구", "name:en": "Danwon-gu"}}, {"type": "Feature", "geometry": {"type": "Point", "coordinates": [127.137, 37.4307]}, "properties": {"osmid": 4705475489, "cellid": 84, "name": "중원구", "name:ko": "중원구", "name:en": "Jungwon-gu"}}, {"type": "Feature", "geometry": {"type": "Point", "coordinates": [127.1462933, 37.4503386]}, "properties": {"osmid": 4705475490, "cellid": 85, "name": "수정구", "name:ko": "수정구", "name:en": "Sujeong-gu"}}, {"type": "Feature", "geometry": {"type": "Point", "coordinates": [127.1188, 37.3825999]}, "properties": {"osmid": 4705475491, "cellid": 86, "name": "분당구", "name:ko": "분당구", "name:en": "Bundang-gu"}}, {"type": "Feature", "geometry": {"type": "Point", "coordinates": [127.0972114, 37.3222928]}, "properties": {"osmid": 4705475492, "cellid": 87, "name": "수지구", "name:ko": "수지구", "name:en": "Suji-gu"}}, {"type": "Feature", "geometry": {"type": "Point", "coordinates": [128.7027, 35.1983]}, "properties": {"osmid": 4839650856, "cellid": 88, "name": "성산구", "name:ko": null, "name:en": "Seongsan-gu"}}, {"type": "Feature", "geometry": {"type": "Point", "coordinates": [126.8322661, 37.6372662]}, "properties": {"osmid": 4908798376, "cellid": 89, "name": "덕양구", "name:ko": "덕양구", "name:en": "Deogyang-gu"}}, {"type": "Feature", "geometry": {"type": "Point", "coordinates": [127.3838, 36.3551]}, "properties": {"osmid": 5011903465, "cellid": 90, "name": "서구", "name:ko": "서구", "name:en": "Seo-gu"}}, {"type": "Feature", "geometry": {"type": "Point", "coordinates": [127.4212, 36.3255]}, "properties": {"osmid": 5011903466, "cellid": 91, "name": "중구", "name:ko": "중구", "name:en": "Jung-gu"}}, {"type": "Feature", "geometry": {"type": "Point", "coordinates": [127.4551, 36.3122]}, "properties": {"osmid": 5011903467, "cellid": 92, "name": "동구", "name:ko": "동구", "name:en": "Dong-gu"}}, {"type": "Feature", "geometry": {"type": "Point", "coordinates": [127.4157, 36.3468]}, "properties": {"osmid": 5012451572, "cellid": 93, "name": "대덕구", "name:ko": "대덕구", "name:en": "Daedeok-gu"}}, {"type": "Feature", "geometry": {"type": "Point", "coordinates": [126.8900561, 35.1521401]}, "properties": {"osmid": 5751524192, "cellid": 94, "name": "서구", "name:ko": "서구", "name:en": "Seo-gu"}}, {"type": "Feature", "geometry": {"type": "Point", "coordinates": [126.9025, 35.1327]}, "properties": {"osmid": 5751524193, "cellid": 95, "name": "남구", "name:ko": "남구", "name:en": "Nam-gu"}}, {"type": "Feature", "geometry": {"type": "Point", "coordinates": [126.9122, 35.1741]}, "properties": {"osmid": 5751524194, "cellid": 96, "name": "북구", "name:ko": "북구", "name:en": "Buk-gu"}}, {"type": "Feature", "geometry": {"type": "Point", "coordinates": [127.1342, 35.8294]}, "properties": {"osmid": 6612357878, "cellid": 97, "name": "덕진구", "name:ko": "덕진구", "name:en": "Deokjin-gu"}}, {"type": "Feature", "geometry": {"type": "Point", "coordinates": [129.3657, 36.0418]}, "properties": {"osmid": 6612368178, "cellid": 98, "name": "북구", "name:ko": "북구", "name:en": "Buk-gu"}}, {"type": "Feature", "geometry": {"type": "Point", "coordinates": [129.3591999, 36.0087]}, "properties": {"osmid": 6612368179, "cellid": 99, "name": "남구", "name:ko": "남구", "name:en": "Nam-gu"}}, {"type": "Feature", "geometry": {"type": "Point", "coordinates": [129.4170114, 35.5046663]}, "properties": {"osmid": 6612437352, "cellid": 100, "name": "동구", "name:ko": "동구", "name:en": "Dong-gu"}}]}