{"type": "FeatureCollection", "features": [{"type": "Feature", "geometry": {"type": "Point", "coordinates": [126.910107, 36.2753678]}, "properties": {"osmid": 358896798, "cellid": 0, "name": "부여군", "name:ko": "부여군", "name:en": "Buyeo-gun"}}, {"type": "Feature", "geometry": {"type": "Point", "coordinates": [127.2914673, 35.2818969]}, "properties": {"osmid": 358896884, "cellid": 1, "name": "곡성군", "name:ko": "곡성군", "name:en": "Gokseong-gun"}}, {"type": "Feature", "geometry": {"type": "Point", "coordinates": [127.463225, 35.2024172]}, "properties": {"osmid": 358896907, "cellid": 2, "name": "구례군", "name:ko": "구례군", "name:en": "Gurye-gun"}}, {"type": "Feature", "geometry": {"type": "Point", "coordinates": [126.9864311, 35.0643095]}, "properties": {"osmid": 358896922, "cellid": 3, "name": "화순군", "name:ko": "화순군", "name:en": "Hwasun-gun"}}, {"type": "Feature", "geometry": {"type": "Point", "coordinates": [126.5166414, 35.0656537]}, "properties": {"osmid": 358896926, "cellid": 4, "name": "함평군", "name:ko": "함평군", "name:en": "Hampyeong-gun"}}, {"type": "Feature", "geometry": {"type": "Point", "coordinates": [126.5115158, 35.2781217]}, "properties": {"osmid": 358896928, "cellid": 5, "name": "영광군", "name:ko": "영광군", "name:en": "Yeonggwang-gun"}}, {"type": "Feature", "geometry": {"type": "Point", "coordinates": [126.4812377, 34.9905794]}, "properties": {"osmid": 358896933, "cellid": 6, "name": "무안군", "name:ko": "무안군", "name:en": "Muan-gun"}}, {"type": "Feature", "geometry": {"type": "Point", "coordinates": [126.2629264, 34.4867515]}, "properties": {"osmid": 358896935, "cellid": 7, "name": "진도군", "name:ko": "진도군", "name:en": "Jindo-gun"}}, {"type": "Feature", "geometry": {"type": "Point", "coordinates": [126.3522531, 34.8331095]}, "properties": {"osmid": 358896937, "cellid": 8, "name": "신안군", "name:ko": "신안군", "name:en": "Sinan-gun"}}, {"type": "Feature", "geometry": {"type": "Point", "coordinates": [126.7844061, 35.3017065]}, "properties": {"osmid": 358896939, "cellid": 9, "name": "장성군", "name:ko": "장성군", "name:en": "Jangseong-gun"}}, {"type": "Feature", "geometry": {"type": "Point", "coordinates": [126.7553933, 34.3110373]}, "properties": {"osmid": 358896942, "cellid": 10, "name": "완도군", "name:ko": "완도군", "name:en": "Wando-gun"}}, {"type": "Feature", "geometry": {"type": "Point", "coordinates": [130.9054976, 37.4843883]}, "properties": {"osmid": 358896971, "cellid": 11, "name": "울릉군청", "name:ko": "울릉군청", "name:en": "Ulleung-gun Office"}}, {"type": "Feature", "geometry": {"type": "Point", "coordinates": [127.751741, 35.067279]}, "properties": {"osmid": 358897005, "cellid": 12, "name": "하동군", "name:ko": "하동군", "name:en": "Hadong-gun"}}, {"type": "Feature", "geometry": {"type": "Point", "coordinates": [128.6608785, 37.3806081]}, "properties": {"osmid": 358897037, "cellid": 13, "name": "정선군", "name:ko": "정선군", "name:en": "Jeongseon-gun"}}, {"type": "Feature", "geometry": {"type": "Point", "coordinates": [127.2893, 35.6174]}, "properties": {"osmid": 414979427, "cellid": 14, "name": "임실군", "name:ko": "임실군", "name:en": "Imsil-gun"}}, {"type": "Feature", "geometry": {"type": "Point", "coordinates": [126.7021, 35.4355]}, "properties": {"osmid": 415144089, "cellid": 15, "name": "고창군", "name:ko": "고창군", "name:en": "Gochang-gun"}}, {"type": "Feature", "geometry": {"type": "Point", "coordinates": [126.9883238, 35.320878]}, "properties": {"osmid": 415144694, "cellid": 16, "name": "담양군", "name:ko": "담양군", "name:en": "Damyang-gun"}}, {"type": "Feature", "geometry": {"type": "Point", "coordinates": [127.1374, 35.3741]}, "properties": {"osmid": 415144800, "cellid": 17, "name": "순창군", "name:ko": "순창군", "name:en": "Sunchang-gun"}}, {"type": "Feature", "geometry": {"type": "Point", "coordinates": [126.6970381, 34.800052]}, "properties": {"osmid": 415146014, "cellid": 18, "name": "영암군", "name:ko": "영암군", "name:en": "Yeongam-gun"}}, {"type": "Feature", "geometry": {"type": "Point", "coordinates": [127.8927114, 34.8374087]}, "properties": {"osmid": 415147559, "cellid": 19, "name": "남해군", "name:ko": "남해군", "name:en": "Namhae-gun"}}, {"type": "Feature", "geometry": {"type": "Point", "coordinates": [128.2835, 35.9189999]}, "properties": {"osmid": 415148915, "cellid": 20, "name": "성주군", "name:ko": "성주군", "name:en": "Seongju-gun"}}, {"type": "Feature", "geometry": {"type": "Point", "coordinates": [127.6609, 36.007]}, "properties": {"osmid": 415149741, "cellid": 21, "name": "무주군", "name:ko": "무주군", "name:en": "Muju-gun"}}, {"type": "Feature", "geometry": {"type": "Point", "coordinates": [127.4252, 35.7915]}, "properties": {"osmid": 415149863, "cellid": 22, "name": "진안군", "name:ko": "진안군", "name:en": "Jinan-gun"}}, {"type": "Feature", "geometry": {"type": "Point", "coordinates": [127.1622, 35.9039]}, "properties": {"osmid": 415150318, "cellid": 23, "name": "완주군", "name:ko": "완주군", "name:en": "Wanju-gun"}}, {"type": "Feature", "geometry": {"type": "Point", "coordinates": [128.2632, 35.7258]}, "properties": {"osmid": 415150849, "cellid": 24, "name": "고령군", "name:ko": "고령군", "name:en": "Goryeong-gun"}}, {"type": "Feature", "geometry": {"type": "Point", "coordinates": [127.5212, 35.647]}, "properties": {"osmid": 415151273, "cellid": 25, "name": "장수군", "name:ko": "장수군", "name:en": "Jangsu-gun"}}, {"type": "Feature", "geometry": {"type": "Point", "coordinates": [126.7330195, 35.7316783]}, "properties": {"osmid": 415151436, "cellid": 26, "name": "부안군", "name:ko": "부안군", "name:en": "Buan-gun"}}, {"type": "Feature", "geometry": {"type": "Point", "coordinates": [128.4678, 38.3808]}, "properties": {"osmid": 415151825, "cellid": 27, "name": "고성군", "name:ko": "고성군", "name:en": "Goseong-gun"}}, {"type": "Feature", "geometry": {"type": "Point", "coordinates": [128.6191, 38.0751]}, "properties": {"osmid": 415151865, "cellid": 28, "name": "양양군", "name:ko": "양양군", "name:en": "Yangyang-gun"}}, {"type": "Feature", "geometry": {"type": "Point", "coordinates": [128.1706, 38.0694]}, "properties": {"osmid": 415152009, "cellid": 29, "name": "인제군", "name:ko": "인제군", "name:en": "Inje-gun"}}, {"type": "Feature", "geometry": {"type": "Point", "coordinates": [127.51102, 38.07299]}, "properties": {"osmid": 415152054, "cellid": 30, "name": "사내면", "name:ko": "사내면", "name:en": "Sanaemyeon"}}, {"type": "Feature", "geometry": {"type": "Point", "coordinates": [127.0746, 38.0964]}, "properties": {"osmid": 415152166, "cellid": 31, "name": "연천군", "name:ko": "연천군", "name:en": "Yeoncheon-gun"}}, {"type": "Feature", "geometry": {"type": "Point", "coordinates": [127.985, 37.4916]}, "properties": {"osmid": 415153121, "cellid": 32, "name": "횡성군", "name:ko": "횡성군", "name:en": "Hoengseong-gun"}}, {"type": "Feature", "geometry": {"type": "Point", "coordinates": [127.8888, 37.6967]}, "properties": {"osmid": 415153206, "cellid": 33, "name": "홍천군", "name:ko": "홍천군", "name:en": "Hongcheon-gun"}}, {"type": "Feature", "geometry": {"type": "Point", "coordinates": [126.488, 37.746]}, "properties": {"osmid": 415153247, "cellid": 34, "name": "강화군", "name:ko": "강화군", "name:en": "Ganghwa-gun"}}, {"type": "Feature", "geometry": {"type": "Point", "coordinates": [128.3903, 37.3705]}, "properties": {"osmid": 415154466, "cellid": 35, "name": "평창군", "name:ko": "평창군", "name:en": "Pyeongchang-gun"}}, {"type": "Feature", "geometry": {"type": "Point", "coordinates": [128.4619814, 37.1834983]}, "properties": {"osmid": 415155581, "cellid": 36, "name": "영월군", "name:ko": "영월군", "name:en": "Yeongwol-gun"}}, {"type": "Feature", "geometry": {"type": "Point", "coordinates": [128.7324, 36.8925]}, "properties": {"osmid": 415156624, "cellid": 37, "name": "봉화군", "name:ko": "봉화군", "name:en": "Bonghwa-gun"}}, {"type": "Feature", "geometry": {"type": "Point", "coordinates": [128.3659, 36.9848]}, "properties": {"osmid": 415156829, "cellid": 38, "name": "단양군", "name:ko": "단양군", "name:en": "Danyang-gun"}}, {"type": "Feature", "geometry": {"type": "Point", "coordinates": [127.7866, 36.815]}, "properties": {"osmid": 415157062, "cellid": 39, "name": "괴산군", "name:ko": "괴산군", "name:en": "Goesan-gun"}}, {"type": "Feature", "geometry": {"type": "Point", "coordinates": [127.5819, 36.7854]}, "properties": {"osmid": 415157309, "cellid": 40, "name": "증평군", "name:ko": "증평군", "name:en": "Jeungpyeong-gun"}}, {"type": "Feature", "geometry": {"type": "Point", "coordinates": [127.6906, 36.94]}, "properties": {"osmid": 415157368, "cellid": 41, "name": "음성군", "name:ko": "음성군", "name:en": "Eumseong-gun"}}, {"type": "Feature", "geometry": {"type": "Point", "coordinates": [127.4355, 36.8548]}, "properties": {"osmid": 415157745, "cellid": 42, "name": "진천군", "name:ko": "진천군", "name:en": "Jincheon-gun"}}, {"type": "Feature", "geometry": {"type": "Point", "coordinates": [129.1127, 36.6664]}, "properties": {"osmid": 415158277, "cellid": 43, "name": "영양군", "name:ko": "영양군", "name:en": "Yeongyang-gun"}}, {"type": "Feature", "geometry": {"type": "Point", "coordinates": [126.6605, 36.6009]}, "properties": {"osmid": 415159345, "cellid": 44, "name": "홍성군", "name:ko": "홍성군", "name:en": "Hongseong-gun"}}, {"type": "Feature", "geometry": {"type": "Point", "coordinates": [129.3659, 36.4149]}, "properties": {"osmid": 415160198, "cellid": 45, "name": "영덕군", "name:ko": "영덕군", "name:en": "Yeongdeok-gun"}}, {"type": "Feature", "geometry": {"type": "Point", "coordinates": [129.0571, 36.4358]}, "properties": {"osmid": 415160288, "cellid": 46, "name": "청송군", "name:ko": "청송군", "name:en": "Cheongsong-gun"}}, {"type": "Feature", "geometry": {"type": "Point", "coordinates": [128.697, 36.3524]}, "properties": {"osmid": 415160422, "cellid": 47, "name": "의성군", "name:ko": "의성군", "name:en": "Uiseong-gun"}}, {"type": "Feature", "geometry": {"type": "Point", "coordinates": [127.5716, 36.3061]}, "properties": {"osmid": 415160984, "cellid": 48, "name": "옥천군", "name:ko": "옥천군", "name:en": "Okcheon-gun"}}, {"type": "Feature", "geometry": {"type": "Point", "coordinates": [127.729242, 36.4890118]}, "properties": {"osmid": 415161112, "cellid": 49, "name": "보은군", "name:ko": "보은군", "name:en": "Boeun-gun"}}, {"type": "Feature", "geometry": {"type": "Point", "coordinates": [127.4148, 36.29812]}, "properties": {"osmid": 415161397, "cellid": 50, "name": "중구", "name:ko": "중구", "name:en": "Junggu"}}, {"type": "Feature", "geometry": {"type": "Point", "coordinates": [127.3544493, 36.2973919]}, "properties": {"osmid": 415161413, "cellid": 51, "name": "서구", "name:ko": "서구", "name:en": "Seogu"}}, {"type": "Feature", "geometry": {"type": "Point", "coordinates": [126.8022, 36.4585999]}, "properties": {"osmid": 415161680, "cellid": 52, "name": "청양군", "name:ko": "청양군", "name:en": "Cheongyang-gun"}}, {"type": "Feature", "geometry": {"type": "Point", "coordinates": [128.5731, 36.2424]}, "properties": {"osmid": 415162336, "cellid": 53, "name": "군위군", "name:ko": "군위군", "name:en": "Gunwi-gun"}}, {"type": "Feature", "geometry": {"type": "Point", "coordinates": [128.4017, 35.995]}, "properties": {"osmid": 415162548, "cellid": 54, "name": "칠곡군", "name:ko": "칠곡군", "name:en": "Chilgok-gun"}}, {"type": "Feature", "geometry": {"type": "Point", "coordinates": [127.7834432, 36.1747588]}, "properties": {"osmid": 415162717, "cellid": 55, "name": "영동군", "name:ko": "영동군", "name:en": "Yeongdong-gun"}}, {"type": "Feature", "geometry": {"type": "Point", "coordinates": [127.48815, 36.1087249]}, "properties": {"osmid": 415163015, "cellid": 56, "name": "금산군", "name:ko": "금산군", "name:en": "Geumsan-gun"}}, {"type": "Feature", "geometry": {"type": "Point", "coordinates": [127.276384, 34.6044123]}, "properties": {"osmid": 415165410, "cellid": 57, "name": "고흥군", "name:ko": "고흥군", "name:en": "Goheung-gun"}}, {"type": "Feature", "geometry": {"type": "Point", "coordinates": [126.906996, 34.6811762]}, "properties": {"osmid": 415165607, "cellid": 58, "name": "장흥군", "name:ko": "장흥군", "name:en": "Jangheung-gun"}}, {"type": "Feature", "geometry": {"type": "Point", "coordinates": [127.5098, 37.8314]}, "properties": {"osmid": 1912558046, "cellid": 59, "name": "가평군", "name:ko": "가평군", "name:en": "Gapyeong-gun"}}, {"type": "Feature", "geometry": {"type": "Point", "coordinates": [126.429, 37.533]}, "properties": {"osmid": 1969457985, "cellid": 60, "name": "옹진군", "name:ko": "옹진군", "name:en": "Ongjin-gun"}}, {"type": "Feature", "geometry": {"type": "Point", "coordinates": [128.4376, 36.6462999]}, "properties": {"osmid": 2457800474, "cellid": 61, "name": "예천군", "name:ko": "예천군", "name:en": "Yecheon-gun"}}, {"type": "Feature", "geometry": {"type": "Point", "coordinates": [127.3133, 38.1468]}, "properties": {"osmid": 2800319514, "cellid": 62, "name": "철원군", "name:ko": "철원군", "name:en": "Cheorwon-gun"}}, {"type": "Feature", "geometry": {"type": "Point", "coordinates": [127.4875, 37.4916]}, "properties": {"osmid": 3733753664, "cellid": 63, "name": "양평군", "name:ko": "양평군", "name:en": "Yangpyeong-gun"}}, {"type": "Feature", "geometry": {"type": "Point", "coordinates": [129.223, 35.2446]}, "properties": {"osmid": 4473495835, "cellid": 64, "name": "기장군", "name:ko": "기장군", "name:en": "Gijang-gun"}}, {"type": "Feature", "geometry": {"type": "Point", "coordinates": [128.4312, 35.7753]}, "properties": {"osmid": 4502273482, "cellid": 65, "name": "달성군", "name:ko": "달성군", "name:en": "Dalseong County"}}, {"type": "Feature", "geometry": {"type": "Point", "coordinates": [129.4006, 36.993]}, "properties": {"osmid": 4663746606, "cellid": 66, "name": "울진군", "name:ko": "울진군", "name:en": "Uljin-gun"}}, {"type": "Feature", "geometry": {"type": "Point", "coordinates": [126.8488761, 36.6825466]}, "properties": {"osmid": 4691930349, "cellid": 67, "name": "예산군", "name:ko": "예산군", "name:en": "Yesan-gun"}}, {"type": "Feature", "geometry": {"type": "Point", "coordinates": [127.0798978, 34.7711356]}, "properties": {"osmid": 4731921962, "cellid": 68, "name": "보성군", "name:ko": "보성군", "name:en": "Boseong-gun"}}, {"type": "Feature", "geometry": {"type": "Point", "coordinates": [127.708, 38.1063]}, "properties": {"osmid": 4920826531, "cellid": 69, "name": "화천군", "name:ko": "화천군", "name:en": "Hwacheon-gun"}}, {"type": "Feature", "geometry": {"type": "Point", "coordinates": [127.9901, 38.1098]}, "properties": {"osmid": 4920826535, "cellid": 70, "name": "양구군", "name:ko": "양구군", "name:en": "Yanggu-gun"}}, {"type": "Feature", "geometry": {"type": "Point", "coordinates": [126.6917006, 36.0804482]}, "properties": {"osmid": 5141384217, "cellid": 71, "name": "서천군", "name:ko": "서천군", "name:en": "Seocheon-gun"}}, {"type": "Feature", "geometry": {"type": "Point", "coordinates": [127.9138505, 35.6872871]}, "properties": {"osmid": 5197756930, "cellid": 72, "name": "거창군", "name:ko": "거창군", "name:en": "Geochang-gun"}}, {"type": "Feature", "geometry": {"type": "Point", "coordinates": [129.2426, 35.5219]}, "properties": {"osmid": 5203460235, "cellid": 73, "name": "울주군", "name:ko": "울주군", "name:en": "Ulju-gun"}}, {"type": "Feature", "geometry": {"type": "Point", "coordinates": [128.7348468, 35.6473012]}, "properties": {"osmid": 5285480022, "cellid": 74, "name": "청도군", "name:ko": "청도군", "name:en": "Cheongdo-gun"}}, {"type": "Feature", "geometry": {"type": "Point", "coordinates": [128.2616485, 35.3225404]}, "properties": {"osmid": 5299757859, "cellid": 75, "name": "의령군", "name:ko": "의령군", "name:en": "Uiryeong-gun"}}, {"type": "Feature", "geometry": {"type": "Point", "coordinates": [128.4065038, 35.2726875]}, "properties": {"osmid": 5299796499, "cellid": 76, "name": "함안군", "name:ko": "함안군", "name:en": "Haman-gun"}}, {"type": "Feature", "geometry": {"type": "Point", "coordinates": [128.4921938, 35.5443876]}, "properties": {"osmid": 5299811821, "cellid": 77, "name": "창녕군", "name:ko": "창녕군", "name:en": "Changnyeong-gun"}}, {"type": "Feature", "geometry": {"type": "Point", "coordinates": [128.322233, 34.9732784]}, "properties": {"osmid": 5299815013, "cellid": 78, "name": "고성군", "name:ko": "고성군", "name:en": "Goseong-gun"}}, {"type": "Feature", "geometry": {"type": "Point", "coordinates": [127.873663, 35.4154624]}, "properties": {"osmid": 5299850160, "cellid": 79, "name": "산청군", "name:ko": "산청군", "name:en": "Sancheong-gun"}}, {"type": "Feature", "geometry": {"type": "Point", "coordinates": [127.7252966, 35.5204145]}, "properties": {"osmid": 5299947051, "cellid": 80, "name": "함양군", "name:ko": "함양군", "name:en": "Hamyang-gun"}}, {"type": "Feature", "geometry": {"type": "Point", "coordinates": [128.1658334, 35.5664445]}, "properties": {"osmid": 5299958624, "cellid": 81, "name": "합천군", "name:ko": "합천군", "name:en": "Hapcheon-gun"}}]}