{
"type": "FeatureCollection",
"name": "kr_city_county_osm",
"crs": { "type": "name", "properties": { "name": "urn:ogc:def:crs:OGC:1.3:CRS84" } },
"features": [
{ "type": "Feature", "properties": { "osmid": 257363453, "cellid": 0, "name": "대구", "name:ko": "대구", "name:en": "Daegu", "layer": "kr_city_osm", "path": "D:\/GitHub\/geodata\/data\/kr_city_osm.json" }, "geometry": { "type": "Point", "coordinates": [ 128.6018, 35.8713 ] } },
{ "type": "Feature", "properties": { "osmid": 257363455, "cellid": 1, "name": "대전", "name:ko": "대전", "name:en": "Daejeon", "layer": "kr_city_osm", "path": "D:\/GitHub\/geodata\/data\/kr_city_osm.json" }, "geometry": { "type": "Point", "coordinates": [ 127.3848, 36.3496 ] } },
{ "type": "Feature", "properties": { "osmid": 257363469, "cellid": 2, "name": "성남시", "name:ko": "성남시", "name:en": "Seongnam-si", "layer": "kr_city_osm", "path": "D:\/GitHub\/geodata\/data\/kr_city_osm.json" }, "geometry": { "type": "Point", "coordinates": [ 127.1262092, 37.4201556 ] } },
{ "type": "Feature", "properties": { "osmid": 257370655, "cellid": 3, "name": "안동시", "name:ko": "안동시", "name:en": "Andong-si", "layer": "kr_city_osm", "path": "D:\/GitHub\/geodata\/data\/kr_city_osm.json" }, "geometry": { "type": "Point", "coordinates": [ 128.7260798, 36.5634886 ] } },
{ "type": "Feature", "properties": { "osmid": 257370656, "cellid": 4, "name": "경주시", "name:ko": "경주시", "name:en": "Gyeongju-si", "layer": "kr_city_osm", "path": "D:\/GitHub\/geodata\/data\/kr_city_osm.json" }, "geometry": { "type": "Point", "coordinates": [ 129.2248811, 35.8556705 ] } },
{ "type": "Feature", "properties": { "osmid": 257370657, "cellid": 5, "name": "목포시", "name:ko": "목포시", "name:en": "Mokpo-si", "layer": "kr_city_osm", "path": "D:\/GitHub\/geodata\/data\/kr_city_osm.json" }, "geometry": { "type": "Point", "coordinates": [ 126.3847547, 34.7903335 ] } },
{ "type": "Feature", "properties": { "osmid": 257370659, "cellid": 6, "name": "창원시", "name:ko": "창원시", "name:en": "Changwon", "layer": "kr_city_osm", "path": "D:\/GitHub\/geodata\/data\/kr_city_osm.json" }, "geometry": { "type": "Point", "coordinates": [ 128.6818586, 35.227956 ] } },
{ "type": "Feature", "properties": { "osmid": 257372341, "cellid": 7, "name": "안산시", "name:ko": "안산시", "name:en": "Ansan-si", "layer": "kr_city_osm", "path": "D:\/GitHub\/geodata\/data\/kr_city_osm.json" }, "geometry": { "type": "Point", "coordinates": [ 126.8308604, 37.3217152 ] } },
{ "type": "Feature", "properties": { "osmid": 257764593, "cellid": 8, "name": "수원시", "name:ko": "수원시", "name:en": "Suwon-si", "layer": "kr_city_osm", "path": "D:\/GitHub\/geodata\/data\/kr_city_osm.json" }, "geometry": { "type": "Point", "coordinates": [ 127.0287472, 37.2633325 ] } },
{ "type": "Feature", "properties": { "osmid": 309947253, "cellid": 9, "name": "청주시", "name:ko": "청주시", "name:en": "Cheongju-si", "layer": "kr_city_osm", "path": "D:\/GitHub\/geodata\/data\/kr_city_osm.json" }, "geometry": { "type": "Point", "coordinates": [ 127.4891742, 36.6421169 ] } },
{ "type": "Feature", "properties": { "osmid": 311886695, "cellid": 10, "name": "오산시", "name:ko": "오산시", "name:en": "Osan", "layer": "kr_city_osm", "path": "D:\/GitHub\/geodata\/data\/kr_city_osm.json" }, "geometry": { "type": "Point", "coordinates": [ 127.0774625, 37.1499376 ] } },
{ "type": "Feature", "properties": { "osmid": 358015143, "cellid": 11, "name": "부산", "name:ko": "부산", "name:en": "Busan", "layer": "kr_city_osm", "path": "D:\/GitHub\/geodata\/data\/kr_city_osm.json" }, "geometry": { "type": "Point", "coordinates": [ 129.075236499999988, 35.1799528 ] } },
{ "type": "Feature", "properties": { "osmid": 358015168, "cellid": 12, "name": "광주", "name:ko": "광주", "name:en": "Gwangju", "layer": "kr_city_osm", "path": "D:\/GitHub\/geodata\/data\/kr_city_osm.json" }, "geometry": { "type": "Point", "coordinates": [ 126.8515089, 35.1595775 ] } },
{ "type": "Feature", "properties": { "osmid": 358015198, "cellid": 13, "name": "고양시", "name:ko": "고양시", "name:en": "Goyang", "layer": "kr_city_osm", "path": "D:\/GitHub\/geodata\/data\/kr_city_osm.json" }, "geometry": { "type": "Point", "coordinates": [ 126.8319452, 37.6581862 ] } },
{ "type": "Feature", "properties": { "osmid": 358015235, "cellid": 14, "name": "전주시", "name:ko": "전주시", "name:en": "Jeonju", "layer": "kr_city_osm", "path": "D:\/GitHub\/geodata\/data\/kr_city_osm.json" }, "geometry": { "type": "Point", "coordinates": [ 127.1480657, 35.8242715 ] } },
{ "type": "Feature", "properties": { "osmid": 358015241, "cellid": 15, "name": "포항시", "name:ko": "포항시", "name:en": "Pohang-si", "layer": "kr_city_osm", "path": "D:\/GitHub\/geodata\/data\/kr_city_osm.json" }, "geometry": { "type": "Point", "coordinates": [ 129.3429384, 36.0189315 ] } },
{ "type": "Feature", "properties": { "osmid": 358015263, "cellid": 16, "name": "김해시", "name:ko": null, "name:en": "Gimhae", "layer": "kr_city_osm", "path": "D:\/GitHub\/geodata\/data\/kr_city_osm.json" }, "geometry": { "type": "Point", "coordinates": [ 128.8908228, 35.2310947 ] } },
{ "type": "Feature", "properties": { "osmid": 358015268, "cellid": 17, "name": "의정부시", "name:ko": "의정부시", "name:en": "Uijeongbu-si", "layer": "kr_city_osm", "path": "D:\/GitHub\/geodata\/data\/kr_city_osm.json" }, "geometry": { "type": "Point", "coordinates": [ 127.033929, 37.7381078 ] } },
{ "type": "Feature", "properties": { "osmid": 358015281, "cellid": 18, "name": "진주시", "name:ko": "진주시", "name:en": "Jinju-si", "layer": "kr_city_osm", "path": "D:\/GitHub\/geodata\/data\/kr_city_osm.json" }, "geometry": { "type": "Point", "coordinates": [ 128.1079953, 35.1803459 ] } },
{ "type": "Feature", "properties": { "osmid": 358015287, "cellid": 19, "name": "구미시", "name:ko": "구미시", "name:en": "Gumi-si", "layer": "kr_city_osm", "path": "D:\/GitHub\/geodata\/data\/kr_city_osm.json" }, "geometry": { "type": "Point", "coordinates": [ 128.3444692, 36.1195513 ] } },
{ "type": "Feature", "properties": { "osmid": 358015292, "cellid": 20, "name": "익산시", "name:ko": "익산시", "name:en": "Iksan-si", "layer": "kr_city_osm", "path": "D:\/GitHub\/geodata\/data\/kr_city_osm.json" }, "geometry": { "type": "Point", "coordinates": [ 126.9578025, 35.9479291 ] } },
{ "type": "Feature", "properties": { "osmid": 358015303, "cellid": 21, "name": "제주시", "name:ko": "제주시", "name:en": "Jeju-si", "layer": "kr_city_osm", "path": "D:\/GitHub\/geodata\/data\/kr_city_osm.json" }, "geometry": { "type": "Point", "coordinates": [ 126.5130589, 33.4930566 ] } },
{ "type": "Feature", "properties": { "osmid": 358015308, "cellid": 22, "name": "여수시", "name:ko": "여수시", "name:en": "Yeosu", "layer": "kr_city_osm", "path": "D:\/GitHub\/geodata\/data\/kr_city_osm.json" }, "geometry": { "type": "Point", "coordinates": [ 127.659859, 34.7546257 ] } },
{ "type": "Feature", "properties": { "osmid": 358015319, "cellid": 23, "name": "순천시", "name:ko": "순천시", "name:en": "Suncheon-si", "layer": "kr_city_osm", "path": "D:\/GitHub\/geodata\/data\/kr_city_osm.json" }, "geometry": { "type": "Point", "coordinates": [ 127.4872992, 34.9505457 ] } },
{ "type": "Feature", "properties": { "osmid": 358015322, "cellid": 24, "name": "군산시", "name:ko": "군산시", "name:en": "Gunsan-si", "layer": "kr_city_osm", "path": "D:\/GitHub\/geodata\/data\/kr_city_osm.json" }, "geometry": { "type": "Point", "coordinates": [ 126.7369036, 35.9679984 ] } },
{ "type": "Feature", "properties": { "osmid": 358015330, "cellid": 25, "name": "군포시", "name:ko": "군포시", "name:en": "Gunpo-si", "layer": "kr_city_osm", "path": "D:\/GitHub\/geodata\/data\/kr_city_osm.json" }, "geometry": { "type": "Point", "coordinates": [ 126.9349025, 37.3615229 ] } },
{ "type": "Feature", "properties": { "osmid": 358015347, "cellid": 26, "name": "춘천시", "name:ko": "춘천시", "name:en": "Chuncheon-si", "layer": "kr_city_osm", "path": "D:\/GitHub\/geodata\/data\/kr_city_osm.json" }, "geometry": { "type": "Point", "coordinates": [ 127.7297641, 37.8810569 ] } },
{ "type": "Feature", "properties": { "osmid": 358015360, "cellid": 27, "name": "경산시", "name:ko": "경산시", "name:en": "Gyeongsan-si", "layer": "kr_city_osm", "path": "D:\/GitHub\/geodata\/data\/kr_city_osm.json" }, "geometry": { "type": "Point", "coordinates": [ 128.741329, 35.825122 ] } },
{ "type": "Feature", "properties": { "osmid": 358015368, "cellid": 28, "name": "양산시", "name:ko": "양산시", "name:en": "Yangsan", "layer": "kr_city_osm", "path": "D:\/GitHub\/geodata\/data\/kr_city_osm.json" }, "geometry": { "type": "Point", "coordinates": [ 129.0370582, 35.3349979 ] } },
{ "type": "Feature", "properties": { "osmid": 358015380, "cellid": 29, "name": "거제시", "name:ko": "거제시", "name:en": "Geoje-si", "layer": "kr_city_osm", "path": "D:\/GitHub\/geodata\/data\/kr_city_osm.json" }, "geometry": { "type": "Point", "coordinates": [ 128.621207, 34.8804677 ] } },
{ "type": "Feature", "properties": { "osmid": 358015396, "cellid": 30, "name": "안성시", "name:ko": "안성시", "name:en": "Anseong-si", "layer": "kr_city_osm", "path": "D:\/GitHub\/geodata\/data\/kr_city_osm.json" }, "geometry": { "type": "Point", "coordinates": [ 127.279971, 37.007773 ] } },
{ "type": "Feature", "properties": { "osmid": 358015415, "cellid": 31, "name": "이천시", "name:ko": "이천시", "name:en": "Icheon-si", "layer": "kr_city_osm", "path": "D:\/GitHub\/geodata\/data\/kr_city_osm.json" }, "geometry": { "type": "Point", "coordinates": [ 127.4429132, 37.2808823 ] } },
{ "type": "Feature", "properties": { "osmid": 358015422, "cellid": 32, "name": "의왕시", "name:ko": "의왕시", "name:en": "Uiwang", "layer": "kr_city_osm", "path": "D:\/GitHub\/geodata\/data\/kr_city_osm.json" }, "geometry": { "type": "Point", "coordinates": [ 126.9689861, 37.3449082 ] } },
{ "type": "Feature", "properties": { "osmid": 358015429, "cellid": 33, "name": "서산시", "name:ko": "서산시", "name:en": "Seosan-si", "layer": "kr_city_osm", "path": "D:\/GitHub\/geodata\/data\/kr_city_osm.json" }, "geometry": { "type": "Point", "coordinates": [ 126.450317, 36.784499 ] } },
{ "type": "Feature", "properties": { "osmid": 358015455, "cellid": 34, "name": "논산시", "name:ko": "논산시", "name:en": "Nonsan-si", "layer": "kr_city_osm", "path": "D:\/GitHub\/geodata\/data\/kr_city_osm.json" }, "geometry": { "type": "Point", "coordinates": [ 127.0987857, 36.1868623 ] } },
{ "type": "Feature", "properties": { "osmid": 358015462, "cellid": 35, "name": "광양시", "name:ko": "광양시", "name:en": "Gwangyang-si", "layer": "kr_city_osm", "path": "D:\/GitHub\/geodata\/data\/kr_city_osm.json" }, "geometry": { "type": "Point", "coordinates": [ 127.6959512, 34.9406452 ] } },
{ "type": "Feature", "properties": { "osmid": 358015496, "cellid": 36, "name": "정읍시", "name:ko": "정읍시", "name:en": "Jeongeup-si", "layer": "kr_city_osm", "path": "D:\/GitHub\/geodata\/data\/kr_city_osm.json" }, "geometry": { "type": "Point", "coordinates": [ 126.8559787, 35.5697678 ] } },
{ "type": "Feature", "properties": { "osmid": 358015505, "cellid": 37, "name": "통영시", "name:ko": "통영시", "name:en": "Tongyeong-si", "layer": "kr_city_osm", "path": "D:\/GitHub\/geodata\/data\/kr_city_osm.json" }, "geometry": { "type": "Point", "coordinates": [ 128.433205, 34.854254 ] } },
{ "type": "Feature", "properties": { "osmid": 358015507, "cellid": 38, "name": "상주시", "name:ko": "상주시", "name:en": "Sangju-si", "layer": "kr_city_osm", "path": "D:\/GitHub\/geodata\/data\/kr_city_osm.json" }, "geometry": { "type": "Point", "coordinates": [ 128.159061400000013, 36.4104478 ] } },
{ "type": "Feature", "properties": { "osmid": 358015515, "cellid": 39, "name": "보령시", "name:ko": "보령시", "name:en": "Boryeong-si", "layer": "kr_city_osm", "path": "D:\/GitHub\/geodata\/data\/kr_city_osm.json" }, "geometry": { "type": "Point", "coordinates": [ 126.613165, 36.33401 ] } },
{ "type": "Feature", "properties": { "osmid": 358015517, "cellid": 40, "name": "김제시", "name:ko": "김제시", "name:en": "Gimje", "layer": "kr_city_osm", "path": "D:\/GitHub\/geodata\/data\/kr_city_osm.json" }, "geometry": { "type": "Point", "coordinates": [ 126.880557, 35.803815 ] } },
{ "type": "Feature", "properties": { "osmid": 358015526, "cellid": 41, "name": "영주시", "name:ko": "영주시", "name:en": "Yeongju-si", "layer": "kr_city_osm", "path": "D:\/GitHub\/geodata\/data\/kr_city_osm.json" }, "geometry": { "type": "Point", "coordinates": [ 128.624054, 36.805685 ] } },
{ "type": "Feature", "properties": { "osmid": 358015529, "cellid": 42, "name": "밀양시", "name:ko": "밀양시", "name:en": "Miryang", "layer": "kr_city_osm", "path": "D:\/GitHub\/geodata\/data\/kr_city_osm.json" }, "geometry": { "type": "Point", "coordinates": [ 128.7466992, 35.503839 ] } },
{ "type": "Feature", "properties": { "osmid": 358015533, "cellid": 43, "name": "사천시", "name:ko": "사천시", "name:en": "Sacheon-si", "layer": "kr_city_osm", "path": "D:\/GitHub\/geodata\/data\/kr_city_osm.json" }, "geometry": { "type": "Point", "coordinates": [ 128.064562, 35.003468 ] } },
{ "type": "Feature", "properties": { "osmid": 358015543, "cellid": 44, "name": "문경시", "name:ko": "문경시", "name:en": "Mungyeong-si", "layer": "kr_city_osm", "path": "D:\/GitHub\/geodata\/data\/kr_city_osm.json" }, "geometry": { "type": "Point", "coordinates": [ 128.186793, 36.58629 ] } },
{ "type": "Feature", "properties": { "osmid": 358015553, "cellid": 45, "name": "나주시", "name:ko": "나주시", "name:en": "Naju-si", "layer": "kr_city_osm", "path": "D:\/GitHub\/geodata\/data\/kr_city_osm.json" }, "geometry": { "type": "Point", "coordinates": [ 126.7108313, 35.0158859 ] } },
{ "type": "Feature", "properties": { "osmid": 358015558, "cellid": 46, "name": "남원시", "name:ko": "남원시", "name:en": "Namwon", "layer": "kr_city_osm", "path": "D:\/GitHub\/geodata\/data\/kr_city_osm.json" }, "geometry": { "type": "Point", "coordinates": [ 127.3903713, 35.4163118 ] } },
{ "type": "Feature", "properties": { "osmid": 358896776, "cellid": 47, "name": "세종", "name:ko": "세종", "name:en": "Sejong", "layer": "kr_city_osm", "path": "D:\/GitHub\/geodata\/data\/kr_city_osm.json" }, "geometry": { "type": "Point", "coordinates": [ 127.289, 36.4799999 ] } },
{ "type": "Feature", "properties": { "osmid": 415148619, "cellid": 48, "name": "영천시", "name:ko": "영천시", "name:en": "Yeongcheon-si", "layer": "kr_city_osm", "path": "D:\/GitHub\/geodata\/data\/kr_city_osm.json" }, "geometry": { "type": "Point", "coordinates": [ 128.942, 35.98842 ] } },
{ "type": "Feature", "properties": { "osmid": 415151931, "cellid": 49, "name": "속초시", "name:ko": "속초시", "name:en": "Sokcho-si", "layer": "kr_city_osm", "path": "D:\/GitHub\/geodata\/data\/kr_city_osm.json" }, "geometry": { "type": "Point", "coordinates": [ 128.5913424, 38.2069574 ] } },
{ "type": "Feature", "properties": { "osmid": 415152872, "cellid": 50, "name": "양주시", "name:ko": "양주시", "name:en": "Yangju", "layer": "kr_city_osm", "path": "D:\/GitHub\/geodata\/data\/kr_city_osm.json" }, "geometry": { "type": "Point", "coordinates": [ 127.0457771, 37.7849312 ] } },
{ "type": "Feature", "properties": { "osmid": 415152911, "cellid": 51, "name": "동두천시", "name:ko": "동두천시", "name:en": "Dongducheon-si", "layer": "kr_city_osm", "path": "D:\/GitHub\/geodata\/data\/kr_city_osm.json" }, "geometry": { "type": "Point", "coordinates": [ 127.0605175, 37.9030856 ] } },
{ "type": "Feature", "properties": { "osmid": 415152942, "cellid": 52, "name": "포천시", "name:ko": "포천시", "name:en": "Pocheon-si", "layer": "kr_city_osm", "path": "D:\/GitHub\/geodata\/data\/kr_city_osm.json" }, "geometry": { "type": "Point", "coordinates": [ 127.2007295, 37.8948267 ] } },
{ "type": "Feature", "properties": { "osmid": 415152982, "cellid": 53, "name": "동해시", "name:ko": "동해시", "name:en": "Donghae-si", "layer": "kr_city_osm", "path": "D:\/GitHub\/geodata\/data\/kr_city_osm.json" }, "geometry": { "type": "Point", "coordinates": [ 129.1146302, 37.5245142 ] } },
{ "type": "Feature", "properties": { "osmid": 415153024, "cellid": 54, "name": "강릉시", "name:ko": "강릉시", "name:en": "Gangneung-si", "layer": "kr_city_osm", "path": "D:\/GitHub\/geodata\/data\/kr_city_osm.json" }, "geometry": { "type": "Point", "coordinates": [ 128.8759523, 37.7525313 ] } },
{ "type": "Feature", "properties": { "osmid": 415154093, "cellid": 55, "name": "구리시", "name:ko": "구리시", "name:en": "Guri-si", "layer": "kr_city_osm", "path": "D:\/GitHub\/geodata\/data\/kr_city_osm.json" }, "geometry": { "type": "Point", "coordinates": [ 127.1297917, 37.5941315 ] } },
{ "type": "Feature", "properties": { "osmid": 415154165, "cellid": 56, "name": "남양주시", "name:ko": "남양주시", "name:en": "Namyangju-si", "layer": "kr_city_osm", "path": "D:\/GitHub\/geodata\/data\/kr_city_osm.json" }, "geometry": { "type": "Point", "coordinates": [ 127.2165051, 37.6359398 ] } },
{ "type": "Feature", "properties": { "osmid": 415154181, "cellid": 57, "name": "하남시", "name:ko": "하남시", "name:en": "Hanam-si", "layer": "kr_city_osm", "path": "D:\/GitHub\/geodata\/data\/kr_city_osm.json" }, "geometry": { "type": "Point", "coordinates": [ 127.2149292, 37.5392174 ] } },
{ "type": "Feature", "properties": { "osmid": 415154216, "cellid": 58, "name": "삼척시", "name:ko": "삼척시", "name:en": "Samcheok-si", "layer": "kr_city_osm", "path": "D:\/GitHub\/geodata\/data\/kr_city_osm.json" }, "geometry": { "type": "Point", "coordinates": [ 129.165296899999987, 37.4498745 ] } },
{ "type": "Feature", "properties": { "osmid": 415154551, "cellid": 59, "name": "원주시", "name:ko": "원주시", "name:en": "Wonju-si", "layer": "kr_city_osm", "path": "D:\/GitHub\/geodata\/data\/kr_city_osm.json" }, "geometry": { "type": "Point", "coordinates": [ 127.9197603, 37.3420996 ] } },
{ "type": "Feature", "properties": { "osmid": 415154705, "cellid": 60, "name": "여주시", "name:ko": "여주시", "name:en": "Yeoju-si", "layer": "kr_city_osm", "path": "D:\/GitHub\/geodata\/data\/kr_city_osm.json" }, "geometry": { "type": "Point", "coordinates": [ 127.637033, 37.2982901 ] } },
{ "type": "Feature", "properties": { "osmid": 415155086, "cellid": 61, "name": "광주시", "name:ko": "광주시", "name:en": "Gwangju-si", "layer": "kr_city_osm", "path": "D:\/GitHub\/geodata\/data\/kr_city_osm.json" }, "geometry": { "type": "Point", "coordinates": [ 127.255189, 37.4290844 ] } },
{ "type": "Feature", "properties": { "osmid": 415155618, "cellid": 62, "name": "제천시", "name:ko": "제천시", "name:en": "Jecheon-si", "layer": "kr_city_osm", "path": "D:\/GitHub\/geodata\/data\/kr_city_osm.json" }, "geometry": { "type": "Point", "coordinates": [ 128.1913508, 37.1326042 ] } },
{ "type": "Feature", "properties": { "osmid": 415155721, "cellid": 63, "name": "충주시", "name:ko": "충주시", "name:en": "Chungju-si", "layer": "kr_city_osm", "path": "D:\/GitHub\/geodata\/data\/kr_city_osm.json" }, "geometry": { "type": "Point", "coordinates": [ 127.9259891, 36.9907334 ] } },
{ "type": "Feature", "properties": { "osmid": 415156263, "cellid": 64, "name": "화성시", "name:ko": "화성시", "name:en": "Hwaseong-si", "layer": "kr_city_osm", "path": "D:\/GitHub\/geodata\/data\/kr_city_osm.json" }, "geometry": { "type": "Point", "coordinates": [ 126.8312632, 37.1994653 ] } },
{ "type": "Feature", "properties": { "osmid": 415156335, "cellid": 65, "name": "평택시", "name:ko": "평택시", "name:en": "Pyeongtaek", "layer": "kr_city_osm", "path": "D:\/GitHub\/geodata\/data\/kr_city_osm.json" }, "geometry": { "type": "Point", "coordinates": [ 127.1127168, 36.9924966 ] } },
{ "type": "Feature", "properties": { "osmid": 415156460, "cellid": 66, "name": "용인시", "name:ko": "용인시", "name:en": "Yongin-si", "layer": "kr_city_osm", "path": "D:\/GitHub\/geodata\/data\/kr_city_osm.json" }, "geometry": { "type": "Point", "coordinates": [ 127.1785572, 37.2405741 ] } },
{ "type": "Feature", "properties": { "osmid": 415157893, "cellid": 67, "name": "아산시", "name:ko": "아산시", "name:en": "Asan-si", "layer": "kr_city_osm", "path": "D:\/GitHub\/geodata\/data\/kr_city_osm.json" }, "geometry": { "type": "Point", "coordinates": [ 127.0026769, 36.7899498 ] } },
{ "type": "Feature", "properties": { "osmid": 415158162, "cellid": 68, "name": "천안시", "name:ko": "천안시", "name:en": "Cheonan-si", "layer": "kr_city_osm", "path": "D:\/GitHub\/geodata\/data\/kr_city_osm.json" }, "geometry": { "type": "Point", "coordinates": [ 127.1140654, 36.8150283 ] } },
{ "type": "Feature", "properties": { "osmid": 415161922, "cellid": 69, "name": "공주시", "name:ko": "공주시", "name:en": "Gongju-si", "layer": "kr_city_osm", "path": "D:\/GitHub\/geodata\/data\/kr_city_osm.json" }, "geometry": { "type": "Point", "coordinates": [ 127.09124, 36.47257 ] } },
{ "type": "Feature", "properties": { "osmid": 415161986, "cellid": 70, "name": "계룡시", "name:ko": "계룡시", "name:en": "Gyeryong-si", "layer": "kr_city_osm", "path": "D:\/GitHub\/geodata\/data\/kr_city_osm.json" }, "geometry": { "type": "Point", "coordinates": [ 127.2472702, 36.275523 ] } },
{ "type": "Feature", "properties": { "osmid": 415162581, "cellid": 71, "name": "김천시", "name:ko": "김천시", "name:en": "Gimcheon-si", "layer": "kr_city_osm", "path": "D:\/GitHub\/geodata\/data\/kr_city_osm.json" }, "geometry": { "type": "Point", "coordinates": [ 128.09022, 36.07783 ] } },
{ "type": "Feature", "properties": { "osmid": 1831812850, "cellid": 72, "name": "인천", "name:ko": "인천", "name:en": "Incheon", "layer": "kr_city_osm", "path": "D:\/GitHub\/geodata\/data\/kr_city_osm.json" }, "geometry": { "type": "Point", "coordinates": [ 126.7052, 37.456 ] } },
{ "type": "Feature", "properties": { "osmid": 1910974426, "cellid": 73, "name": "과천시", "name:ko": "과천시", "name:en": "Gwacheon-si", "layer": "kr_city_osm", "path": "D:\/GitHub\/geodata\/data\/kr_city_osm.json" }, "geometry": { "type": "Point", "coordinates": [ 126.9881655, 37.4289037 ] } },
{ "type": "Feature", "properties": { "osmid": 1912365631, "cellid": 74, "name": "서울", "name:ko": "서울", "name:en": "Seoul", "layer": "kr_city_osm", "path": "D:\/GitHub\/geodata\/data\/kr_city_osm.json" }, "geometry": { "type": "Point", "coordinates": [ 126.9782914, 37.5666791 ] } },
{ "type": "Feature", "properties": { "osmid": 1912558035, "cellid": 75, "name": "안양시", "name:ko": "안양시", "name:en": "Anyang-si", "layer": "kr_city_osm", "path": "D:\/GitHub\/geodata\/data\/kr_city_osm.json" }, "geometry": { "type": "Point", "coordinates": [ 126.9570605, 37.3938528 ] } },
{ "type": "Feature", "properties": { "osmid": 1912558038, "cellid": 76, "name": "부천시", "name:ko": "부천시", "name:en": "Bucheon", "layer": "kr_city_osm", "path": "D:\/GitHub\/geodata\/data\/kr_city_osm.json" }, "geometry": { "type": "Point", "coordinates": [ 126.7660139, 37.5014422 ] } },
{ "type": "Feature", "properties": { "osmid": 1912558055, "cellid": 77, "name": "광명시", "name:ko": "광명시", "name:en": "Gwangmyeong-si", "layer": "kr_city_osm", "path": "D:\/GitHub\/geodata\/data\/kr_city_osm.json" }, "geometry": { "type": "Point", "coordinates": [ 126.8631275, 37.4810539 ] } },
{ "type": "Feature", "properties": { "osmid": 1912558057, "cellid": 78, "name": "시흥시", "name:ko": "시흥시", "name:en": "Siheung-si", "layer": "kr_city_osm", "path": "D:\/GitHub\/geodata\/data\/kr_city_osm.json" }, "geometry": { "type": "Point", "coordinates": [ 126.8032255, 37.3798891 ] } },
{ "type": "Feature", "properties": { "osmid": 3428290497, "cellid": 79, "name": "당진시", "name:ko": "당진시", "name:en": "Dangjin-si", "layer": "kr_city_osm", "path": "D:\/GitHub\/geodata\/data\/kr_city_osm.json" }, "geometry": { "type": "Point", "coordinates": [ 126.6461833, 36.8904083 ] } },
{ "type": "Feature", "properties": { "osmid": 4909017636, "cellid": 80, "name": "김포시", "name:ko": "김포시", "name:en": "Gimpo-si", "layer": "kr_city_osm", "path": "D:\/GitHub\/geodata\/data\/kr_city_osm.json" }, "geometry": { "type": "Point", "coordinates": [ 126.7157891, 37.615461 ] } },
{ "type": "Feature", "properties": { "osmid": 5424418655, "cellid": 81, "name": "강진군", "name:ko": "강진군", "name:en": "Gangjin-gun", "layer": "kr_city_osm", "path": "D:\/GitHub\/geodata\/data\/kr_city_osm.json" }, "geometry": { "type": "Point", "coordinates": [ 126.7669591, 34.641917 ] } },
{ "type": "Feature", "properties": { "osmid": 5424418659, "cellid": 82, "name": "서귀포시", "name:ko": "서귀포시", "name:en": "Seogwipo-si", "layer": "kr_city_osm", "path": "D:\/GitHub\/geodata\/data\/kr_city_osm.json" }, "geometry": { "type": "Point", "coordinates": [ 126.515299, 33.2572971 ] } },
{ "type": "Feature", "properties": { "osmid": 6612437350, "cellid": 83, "name": "울산", "name:ko": "울산", "name:en": "Ulsan", "layer": "kr_city_osm", "path": "D:\/GitHub\/geodata\/data\/kr_city_osm.json" }, "geometry": { "type": "Point", "coordinates": [ 129.3119136, 35.5391697 ] } },
{ "type": "Feature", "properties": { "osmid": 6780463693, "cellid": 84, "name": "파주시", "name:ko": "파주시", "name:en": "Paju", "layer": "kr_city_osm", "path": "D:\/GitHub\/geodata\/data\/kr_city_osm.json" }, "geometry": { "type": "Point", "coordinates": [ 126.7801502, 37.7598955 ] } },
{ "type": "Feature", "properties": { "osmid": 6919770645, "cellid": 85, "name": "태백시", "name:ko": "태백시", "name:en": "Taebaek", "layer": "kr_city_osm", "path": "D:\/GitHub\/geodata\/data\/kr_city_osm.json" }, "geometry": { "type": "Point", "coordinates": [ 128.985717599999987, 37.1637943 ] } },
{ "type": "Feature", "properties": { "osmid": 358896798, "cellid": 0, "name": "부여군", "name:ko": "부여군", "name:en": "Buyeo-gun", "layer": "kr_county_osm", "path": "D:\/GitHub\/geodata\/data\/kr_county_osm.json|layername=kr_county_osm" }, "geometry": { "type": "Point", "coordinates": [ 126.910107, 36.2753678 ] } },
{ "type": "Feature", "properties": { "osmid": 358896884, "cellid": 1, "name": "곡성군", "name:ko": "곡성군", "name:en": "Gokseong-gun", "layer": "kr_county_osm", "path": "D:\/GitHub\/geodata\/data\/kr_county_osm.json|layername=kr_county_osm" }, "geometry": { "type": "Point", "coordinates": [ 127.2914673, 35.2818969 ] } },
{ "type": "Feature", "properties": { "osmid": 358896907, "cellid": 2, "name": "구례군", "name:ko": "구례군", "name:en": "Gurye-gun", "layer": "kr_county_osm", "path": "D:\/GitHub\/geodata\/data\/kr_county_osm.json|layername=kr_county_osm" }, "geometry": { "type": "Point", "coordinates": [ 127.463225, 35.2024172 ] } },
{ "type": "Feature", "properties": { "osmid": 358896922, "cellid": 3, "name": "화순군", "name:ko": "화순군", "name:en": "Hwasun-gun", "layer": "kr_county_osm", "path": "D:\/GitHub\/geodata\/data\/kr_county_osm.json|layername=kr_county_osm" }, "geometry": { "type": "Point", "coordinates": [ 126.9864311, 35.0643095 ] } },
{ "type": "Feature", "properties": { "osmid": 358896926, "cellid": 4, "name": "함평군", "name:ko": "함평군", "name:en": "Hampyeong-gun", "layer": "kr_county_osm", "path": "D:\/GitHub\/geodata\/data\/kr_county_osm.json|layername=kr_county_osm" }, "geometry": { "type": "Point", "coordinates": [ 126.5166414, 35.0656537 ] } },
{ "type": "Feature", "properties": { "osmid": 358896928, "cellid": 5, "name": "영광군", "name:ko": "영광군", "name:en": "Yeonggwang-gun", "layer": "kr_county_osm", "path": "D:\/GitHub\/geodata\/data\/kr_county_osm.json|layername=kr_county_osm" }, "geometry": { "type": "Point", "coordinates": [ 126.5115158, 35.2781217 ] } },
{ "type": "Feature", "properties": { "osmid": 358896933, "cellid": 6, "name": "무안군", "name:ko": "무안군", "name:en": "Muan-gun", "layer": "kr_county_osm", "path": "D:\/GitHub\/geodata\/data\/kr_county_osm.json|layername=kr_county_osm" }, "geometry": { "type": "Point", "coordinates": [ 126.4812377, 34.9905794 ] } },
{ "type": "Feature", "properties": { "osmid": 358896935, "cellid": 7, "name": "진도군", "name:ko": "진도군", "name:en": "Jindo-gun", "layer": "kr_county_osm", "path": "D:\/GitHub\/geodata\/data\/kr_county_osm.json|layername=kr_county_osm" }, "geometry": { "type": "Point", "coordinates": [ 126.2629264, 34.4867515 ] } },
{ "type": "Feature", "properties": { "osmid": 358896937, "cellid": 8, "name": "신안군", "name:ko": "신안군", "name:en": "Sinan-gun", "layer": "kr_county_osm", "path": "D:\/GitHub\/geodata\/data\/kr_county_osm.json|layername=kr_county_osm" }, "geometry": { "type": "Point", "coordinates": [ 126.3522531, 34.8331095 ] } },
{ "type": "Feature", "properties": { "osmid": 358896939, "cellid": 9, "name": "장성군", "name:ko": "장성군", "name:en": "Jangseong-gun", "layer": "kr_county_osm", "path": "D:\/GitHub\/geodata\/data\/kr_county_osm.json|layername=kr_county_osm" }, "geometry": { "type": "Point", "coordinates": [ 126.7844061, 35.3017065 ] } },
{ "type": "Feature", "properties": { "osmid": 358896942, "cellid": 10, "name": "완도군", "name:ko": "완도군", "name:en": "Wando-gun", "layer": "kr_county_osm", "path": "D:\/GitHub\/geodata\/data\/kr_county_osm.json|layername=kr_county_osm" }, "geometry": { "type": "Point", "coordinates": [ 126.7553933, 34.3110373 ] } },
{ "type": "Feature", "properties": { "osmid": 358896971, "cellid": 11, "name": "울릉군청", "name:ko": "울릉군청", "name:en": "Ulleung-gun Office", "layer": "kr_county_osm", "path": "D:\/GitHub\/geodata\/data\/kr_county_osm.json|layername=kr_county_osm" }, "geometry": { "type": "Point", "coordinates": [ 130.9054976, 37.4843883 ] } },
{ "type": "Feature", "properties": { "osmid": 358897005, "cellid": 12, "name": "하동군", "name:ko": "하동군", "name:en": "Hadong-gun", "layer": "kr_county_osm", "path": "D:\/GitHub\/geodata\/data\/kr_county_osm.json|layername=kr_county_osm" }, "geometry": { "type": "Point", "coordinates": [ 127.751741, 35.067279 ] } },
{ "type": "Feature", "properties": { "osmid": 358897037, "cellid": 13, "name": "정선군", "name:ko": "정선군", "name:en": "Jeongseon-gun", "layer": "kr_county_osm", "path": "D:\/GitHub\/geodata\/data\/kr_county_osm.json|layername=kr_county_osm" }, "geometry": { "type": "Point", "coordinates": [ 128.6608785, 37.3806081 ] } },
{ "type": "Feature", "properties": { "osmid": 414979427, "cellid": 14, "name": "임실군", "name:ko": "임실군", "name:en": "Imsil-gun", "layer": "kr_county_osm", "path": "D:\/GitHub\/geodata\/data\/kr_county_osm.json|layername=kr_county_osm" }, "geometry": { "type": "Point", "coordinates": [ 127.2893, 35.6174 ] } },
{ "type": "Feature", "properties": { "osmid": 415144089, "cellid": 15, "name": "고창군", "name:ko": "고창군", "name:en": "Gochang-gun", "layer": "kr_county_osm", "path": "D:\/GitHub\/geodata\/data\/kr_county_osm.json|layername=kr_county_osm" }, "geometry": { "type": "Point", "coordinates": [ 126.7021, 35.4355 ] } },
{ "type": "Feature", "properties": { "osmid": 415144694, "cellid": 16, "name": "담양군", "name:ko": "담양군", "name:en": "Damyang-gun", "layer": "kr_county_osm", "path": "D:\/GitHub\/geodata\/data\/kr_county_osm.json|layername=kr_county_osm" }, "geometry": { "type": "Point", "coordinates": [ 126.9883238, 35.320878 ] } },
{ "type": "Feature", "properties": { "osmid": 415144800, "cellid": 17, "name": "순창군", "name:ko": "순창군", "name:en": "Sunchang-gun", "layer": "kr_county_osm", "path": "D:\/GitHub\/geodata\/data\/kr_county_osm.json|layername=kr_county_osm" }, "geometry": { "type": "Point", "coordinates": [ 127.1374, 35.3741 ] } },
{ "type": "Feature", "properties": { "osmid": 415146014, "cellid": 18, "name": "영암군", "name:ko": "영암군", "name:en": "Yeongam-gun", "layer": "kr_county_osm", "path": "D:\/GitHub\/geodata\/data\/kr_county_osm.json|layername=kr_county_osm" }, "geometry": { "type": "Point", "coordinates": [ 126.6970381, 34.800052 ] } },
{ "type": "Feature", "properties": { "osmid": 415147559, "cellid": 19, "name": "남해군", "name:ko": "남해군", "name:en": "Namhae-gun", "layer": "kr_county_osm", "path": "D:\/GitHub\/geodata\/data\/kr_county_osm.json|layername=kr_county_osm" }, "geometry": { "type": "Point", "coordinates": [ 127.8927114, 34.8374087 ] } },
{ "type": "Feature", "properties": { "osmid": 415148915, "cellid": 20, "name": "성주군", "name:ko": "성주군", "name:en": "Seongju-gun", "layer": "kr_county_osm", "path": "D:\/GitHub\/geodata\/data\/kr_county_osm.json|layername=kr_county_osm" }, "geometry": { "type": "Point", "coordinates": [ 128.2835, 35.9189999 ] } },
{ "type": "Feature", "properties": { "osmid": 415149741, "cellid": 21, "name": "무주군", "name:ko": "무주군", "name:en": "Muju-gun", "layer": "kr_county_osm", "path": "D:\/GitHub\/geodata\/data\/kr_county_osm.json|layername=kr_county_osm" }, "geometry": { "type": "Point", "coordinates": [ 127.6609, 36.007 ] } },
{ "type": "Feature", "properties": { "osmid": 415149863, "cellid": 22, "name": "진안군", "name:ko": "진안군", "name:en": "Jinan-gun", "layer": "kr_county_osm", "path": "D:\/GitHub\/geodata\/data\/kr_county_osm.json|layername=kr_county_osm" }, "geometry": { "type": "Point", "coordinates": [ 127.4252, 35.7915 ] } },
{ "type": "Feature", "properties": { "osmid": 415150318, "cellid": 23, "name": "완주군", "name:ko": "완주군", "name:en": "Wanju-gun", "layer": "kr_county_osm", "path": "D:\/GitHub\/geodata\/data\/kr_county_osm.json|layername=kr_county_osm" }, "geometry": { "type": "Point", "coordinates": [ 127.1622, 35.9039 ] } },
{ "type": "Feature", "properties": { "osmid": 415150849, "cellid": 24, "name": "고령군", "name:ko": "고령군", "name:en": "Goryeong-gun", "layer": "kr_county_osm", "path": "D:\/GitHub\/geodata\/data\/kr_county_osm.json|layername=kr_county_osm" }, "geometry": { "type": "Point", "coordinates": [ 128.2632, 35.7258 ] } },
{ "type": "Feature", "properties": { "osmid": 415151273, "cellid": 25, "name": "장수군", "name:ko": "장수군", "name:en": "Jangsu-gun", "layer": "kr_county_osm", "path": "D:\/GitHub\/geodata\/data\/kr_county_osm.json|layername=kr_county_osm" }, "geometry": { "type": "Point", "coordinates": [ 127.5212, 35.647 ] } },
{ "type": "Feature", "properties": { "osmid": 415151436, "cellid": 26, "name": "부안군", "name:ko": "부안군", "name:en": "Buan-gun", "layer": "kr_county_osm", "path": "D:\/GitHub\/geodata\/data\/kr_county_osm.json|layername=kr_county_osm" }, "geometry": { "type": "Point", "coordinates": [ 126.7330195, 35.7316783 ] } },
{ "type": "Feature", "properties": { "osmid": 415151825, "cellid": 27, "name": "고성군", "name:ko": "고성군", "name:en": "Goseong-gun", "layer": "kr_county_osm", "path": "D:\/GitHub\/geodata\/data\/kr_county_osm.json|layername=kr_county_osm" }, "geometry": { "type": "Point", "coordinates": [ 128.4678, 38.3808 ] } },
{ "type": "Feature", "properties": { "osmid": 415151865, "cellid": 28, "name": "양양군", "name:ko": "양양군", "name:en": "Yangyang-gun", "layer": "kr_county_osm", "path": "D:\/GitHub\/geodata\/data\/kr_county_osm.json|layername=kr_county_osm" }, "geometry": { "type": "Point", "coordinates": [ 128.6191, 38.0751 ] } },
{ "type": "Feature", "properties": { "osmid": 415152009, "cellid": 29, "name": "인제군", "name:ko": "인제군", "name:en": "Inje-gun", "layer": "kr_county_osm", "path": "D:\/GitHub\/geodata\/data\/kr_county_osm.json|layername=kr_county_osm" }, "geometry": { "type": "Point", "coordinates": [ 128.1706, 38.0694 ] } },
{ "type": "Feature", "properties": { "osmid": 415152054, "cellid": 30, "name": "사내면", "name:ko": "사내면", "name:en": "Sanaemyeon", "layer": "kr_county_osm", "path": "D:\/GitHub\/geodata\/data\/kr_county_osm.json|layername=kr_county_osm" }, "geometry": { "type": "Point", "coordinates": [ 127.51102, 38.07299 ] } },
{ "type": "Feature", "properties": { "osmid": 415152166, "cellid": 31, "name": "연천군", "name:ko": "연천군", "name:en": "Yeoncheon-gun", "layer": "kr_county_osm", "path": "D:\/GitHub\/geodata\/data\/kr_county_osm.json|layername=kr_county_osm" }, "geometry": { "type": "Point", "coordinates": [ 127.0746, 38.0964 ] } },
{ "type": "Feature", "properties": { "osmid": 415153121, "cellid": 32, "name": "횡성군", "name:ko": "횡성군", "name:en": "Hoengseong-gun", "layer": "kr_county_osm", "path": "D:\/GitHub\/geodata\/data\/kr_county_osm.json|layername=kr_county_osm" }, "geometry": { "type": "Point", "coordinates": [ 127.985, 37.4916 ] } },
{ "type": "Feature", "properties": { "osmid": 415153206, "cellid": 33, "name": "홍천군", "name:ko": "홍천군", "name:en": "Hongcheon-gun", "layer": "kr_county_osm", "path": "D:\/GitHub\/geodata\/data\/kr_county_osm.json|layername=kr_county_osm" }, "geometry": { "type": "Point", "coordinates": [ 127.8888, 37.6967 ] } },
{ "type": "Feature", "properties": { "osmid": 415153247, "cellid": 34, "name": "강화군", "name:ko": "강화군", "name:en": "Ganghwa-gun", "layer": "kr_county_osm", "path": "D:\/GitHub\/geodata\/data\/kr_county_osm.json|layername=kr_county_osm" }, "geometry": { "type": "Point", "coordinates": [ 126.488, 37.746 ] } },
{ "type": "Feature", "properties": { "osmid": 415154466, "cellid": 35, "name": "평창군", "name:ko": "평창군", "name:en": "Pyeongchang-gun", "layer": "kr_county_osm", "path": "D:\/GitHub\/geodata\/data\/kr_county_osm.json|layername=kr_county_osm" }, "geometry": { "type": "Point", "coordinates": [ 128.3903, 37.3705 ] } },
{ "type": "Feature", "properties": { "osmid": 415155581, "cellid": 36, "name": "영월군", "name:ko": "영월군", "name:en": "Yeongwol-gun", "layer": "kr_county_osm", "path": "D:\/GitHub\/geodata\/data\/kr_county_osm.json|layername=kr_county_osm" }, "geometry": { "type": "Point", "coordinates": [ 128.461981400000013, 37.1834983 ] } },
{ "type": "Feature", "properties": { "osmid": 415156624, "cellid": 37, "name": "봉화군", "name:ko": "봉화군", "name:en": "Bonghwa-gun", "layer": "kr_county_osm", "path": "D:\/GitHub\/geodata\/data\/kr_county_osm.json|layername=kr_county_osm" }, "geometry": { "type": "Point", "coordinates": [ 128.7324, 36.8925 ] } },
{ "type": "Feature", "properties": { "osmid": 415156829, "cellid": 38, "name": "단양군", "name:ko": "단양군", "name:en": "Danyang-gun", "layer": "kr_county_osm", "path": "D:\/GitHub\/geodata\/data\/kr_county_osm.json|layername=kr_county_osm" }, "geometry": { "type": "Point", "coordinates": [ 128.3659, 36.9848 ] } },
{ "type": "Feature", "properties": { "osmid": 415157062, "cellid": 39, "name": "괴산군", "name:ko": "괴산군", "name:en": "Goesan-gun", "layer": "kr_county_osm", "path": "D:\/GitHub\/geodata\/data\/kr_county_osm.json|layername=kr_county_osm" }, "geometry": { "type": "Point", "coordinates": [ 127.7866, 36.815 ] } },
{ "type": "Feature", "properties": { "osmid": 415157309, "cellid": 40, "name": "증평군", "name:ko": "증평군", "name:en": "Jeungpyeong-gun", "layer": "kr_county_osm", "path": "D:\/GitHub\/geodata\/data\/kr_county_osm.json|layername=kr_county_osm" }, "geometry": { "type": "Point", "coordinates": [ 127.5819, 36.7854 ] } },
{ "type": "Feature", "properties": { "osmid": 415157368, "cellid": 41, "name": "음성군", "name:ko": "음성군", "name:en": "Eumseong-gun", "layer": "kr_county_osm", "path": "D:\/GitHub\/geodata\/data\/kr_county_osm.json|layername=kr_county_osm" }, "geometry": { "type": "Point", "coordinates": [ 127.6906, 36.94 ] } },
{ "type": "Feature", "properties": { "osmid": 415157745, "cellid": 42, "name": "진천군", "name:ko": "진천군", "name:en": "Jincheon-gun", "layer": "kr_county_osm", "path": "D:\/GitHub\/geodata\/data\/kr_county_osm.json|layername=kr_county_osm" }, "geometry": { "type": "Point", "coordinates": [ 127.4355, 36.8548 ] } },
{ "type": "Feature", "properties": { "osmid": 415158277, "cellid": 43, "name": "영양군", "name:ko": "영양군", "name:en": "Yeongyang-gun", "layer": "kr_county_osm", "path": "D:\/GitHub\/geodata\/data\/kr_county_osm.json|layername=kr_county_osm" }, "geometry": { "type": "Point", "coordinates": [ 129.1127, 36.6664 ] } },
{ "type": "Feature", "properties": { "osmid": 415159345, "cellid": 44, "name": "홍성군", "name:ko": "홍성군", "name:en": "Hongseong-gun", "layer": "kr_county_osm", "path": "D:\/GitHub\/geodata\/data\/kr_county_osm.json|layername=kr_county_osm" }, "geometry": { "type": "Point", "coordinates": [ 126.6605, 36.6009 ] } },
{ "type": "Feature", "properties": { "osmid": 415160198, "cellid": 45, "name": "영덕군", "name:ko": "영덕군", "name:en": "Yeongdeok-gun", "layer": "kr_county_osm", "path": "D:\/GitHub\/geodata\/data\/kr_county_osm.json|layername=kr_county_osm" }, "geometry": { "type": "Point", "coordinates": [ 129.3659, 36.4149 ] } },
{ "type": "Feature", "properties": { "osmid": 415160288, "cellid": 46, "name": "청송군", "name:ko": "청송군", "name:en": "Cheongsong-gun", "layer": "kr_county_osm", "path": "D:\/GitHub\/geodata\/data\/kr_county_osm.json|layername=kr_county_osm" }, "geometry": { "type": "Point", "coordinates": [ 129.0571, 36.4358 ] } },
{ "type": "Feature", "properties": { "osmid": 415160422, "cellid": 47, "name": "의성군", "name:ko": "의성군", "name:en": "Uiseong-gun", "layer": "kr_county_osm", "path": "D:\/GitHub\/geodata\/data\/kr_county_osm.json|layername=kr_county_osm" }, "geometry": { "type": "Point", "coordinates": [ 128.697, 36.3524 ] } },
{ "type": "Feature", "properties": { "osmid": 415160984, "cellid": 48, "name": "옥천군", "name:ko": "옥천군", "name:en": "Okcheon-gun", "layer": "kr_county_osm", "path": "D:\/GitHub\/geodata\/data\/kr_county_osm.json|layername=kr_county_osm" }, "geometry": { "type": "Point", "coordinates": [ 127.5716, 36.3061 ] } },
{ "type": "Feature", "properties": { "osmid": 415161112, "cellid": 49, "name": "보은군", "name:ko": "보은군", "name:en": "Boeun-gun", "layer": "kr_county_osm", "path": "D:\/GitHub\/geodata\/data\/kr_county_osm.json|layername=kr_county_osm" }, "geometry": { "type": "Point", "coordinates": [ 127.729242, 36.4890118 ] } },
{ "type": "Feature", "properties": { "osmid": 415161397, "cellid": 50, "name": "중구", "name:ko": "중구", "name:en": "Junggu", "layer": "kr_county_osm", "path": "D:\/GitHub\/geodata\/data\/kr_county_osm.json|layername=kr_county_osm" }, "geometry": { "type": "Point", "coordinates": [ 127.4148, 36.29812 ] } },
{ "type": "Feature", "properties": { "osmid": 415161413, "cellid": 51, "name": "서구", "name:ko": "서구", "name:en": "Seogu", "layer": "kr_county_osm", "path": "D:\/GitHub\/geodata\/data\/kr_county_osm.json|layername=kr_county_osm" }, "geometry": { "type": "Point", "coordinates": [ 127.3544493, 36.2973919 ] } },
{ "type": "Feature", "properties": { "osmid": 415161680, "cellid": 52, "name": "청양군", "name:ko": "청양군", "name:en": "Cheongyang-gun", "layer": "kr_county_osm", "path": "D:\/GitHub\/geodata\/data\/kr_county_osm.json|layername=kr_county_osm" }, "geometry": { "type": "Point", "coordinates": [ 126.8022, 36.4585999 ] } },
{ "type": "Feature", "properties": { "osmid": 415162336, "cellid": 53, "name": "군위군", "name:ko": "군위군", "name:en": "Gunwi-gun", "layer": "kr_county_osm", "path": "D:\/GitHub\/geodata\/data\/kr_county_osm.json|layername=kr_county_osm" }, "geometry": { "type": "Point", "coordinates": [ 128.5731, 36.2424 ] } },
{ "type": "Feature", "properties": { "osmid": 415162548, "cellid": 54, "name": "칠곡군", "name:ko": "칠곡군", "name:en": "Chilgok-gun", "layer": "kr_county_osm", "path": "D:\/GitHub\/geodata\/data\/kr_county_osm.json|layername=kr_county_osm" }, "geometry": { "type": "Point", "coordinates": [ 128.4017, 35.995 ] } },
{ "type": "Feature", "properties": { "osmid": 415162717, "cellid": 55, "name": "영동군", "name:ko": "영동군", "name:en": "Yeongdong-gun", "layer": "kr_county_osm", "path": "D:\/GitHub\/geodata\/data\/kr_county_osm.json|layername=kr_county_osm" }, "geometry": { "type": "Point", "coordinates": [ 127.7834432, 36.1747588 ] } },
{ "type": "Feature", "properties": { "osmid": 415163015, "cellid": 56, "name": "금산군", "name:ko": "금산군", "name:en": "Geumsan-gun", "layer": "kr_county_osm", "path": "D:\/GitHub\/geodata\/data\/kr_county_osm.json|layername=kr_county_osm" }, "geometry": { "type": "Point", "coordinates": [ 127.48815, 36.1087249 ] } },
{ "type": "Feature", "properties": { "osmid": 415165410, "cellid": 57, "name": "고흥군", "name:ko": "고흥군", "name:en": "Goheung-gun", "layer": "kr_county_osm", "path": "D:\/GitHub\/geodata\/data\/kr_county_osm.json|layername=kr_county_osm" }, "geometry": { "type": "Point", "coordinates": [ 127.276384, 34.6044123 ] } },
{ "type": "Feature", "properties": { "osmid": 415165607, "cellid": 58, "name": "장흥군", "name:ko": "장흥군", "name:en": "Jangheung-gun", "layer": "kr_county_osm", "path": "D:\/GitHub\/geodata\/data\/kr_county_osm.json|layername=kr_county_osm" }, "geometry": { "type": "Point", "coordinates": [ 126.906996, 34.6811762 ] } },
{ "type": "Feature", "properties": { "osmid": 1912558046, "cellid": 59, "name": "가평군", "name:ko": "가평군", "name:en": "Gapyeong-gun", "layer": "kr_county_osm", "path": "D:\/GitHub\/geodata\/data\/kr_county_osm.json|layername=kr_county_osm" }, "geometry": { "type": "Point", "coordinates": [ 127.5098, 37.8314 ] } },
{ "type": "Feature", "properties": { "osmid": 1969457985, "cellid": 60, "name": "옹진군", "name:ko": "옹진군", "name:en": "Ongjin-gun", "layer": "kr_county_osm", "path": "D:\/GitHub\/geodata\/data\/kr_county_osm.json|layername=kr_county_osm" }, "geometry": { "type": "Point", "coordinates": [ 126.429, 37.533 ] } },
{ "type": "Feature", "properties": { "osmid": 2457800474, "cellid": 61, "name": "예천군", "name:ko": "예천군", "name:en": "Yecheon-gun", "layer": "kr_county_osm", "path": "D:\/GitHub\/geodata\/data\/kr_county_osm.json|layername=kr_county_osm" }, "geometry": { "type": "Point", "coordinates": [ 128.4376, 36.6462999 ] } },
{ "type": "Feature", "properties": { "osmid": 2800319514, "cellid": 62, "name": "철원군", "name:ko": "철원군", "name:en": "Cheorwon-gun", "layer": "kr_county_osm", "path": "D:\/GitHub\/geodata\/data\/kr_county_osm.json|layername=kr_county_osm" }, "geometry": { "type": "Point", "coordinates": [ 127.3133, 38.1468 ] } },
{ "type": "Feature", "properties": { "osmid": 3733753664, "cellid": 63, "name": "양평군", "name:ko": "양평군", "name:en": "Yangpyeong-gun", "layer": "kr_county_osm", "path": "D:\/GitHub\/geodata\/data\/kr_county_osm.json|layername=kr_county_osm" }, "geometry": { "type": "Point", "coordinates": [ 127.4875, 37.4916 ] } },
{ "type": "Feature", "properties": { "osmid": 4473495835, "cellid": 64, "name": "기장군", "name:ko": "기장군", "name:en": "Gijang-gun", "layer": "kr_county_osm", "path": "D:\/GitHub\/geodata\/data\/kr_county_osm.json|layername=kr_county_osm" }, "geometry": { "type": "Point", "coordinates": [ 129.223, 35.2446 ] } },
{ "type": "Feature", "properties": { "osmid": 4502273482, "cellid": 65, "name": "달성군", "name:ko": "달성군", "name:en": "Dalseong County", "layer": "kr_county_osm", "path": "D:\/GitHub\/geodata\/data\/kr_county_osm.json|layername=kr_county_osm" }, "geometry": { "type": "Point", "coordinates": [ 128.4312, 35.7753 ] } },
{ "type": "Feature", "properties": { "osmid": 4663746606, "cellid": 66, "name": "울진군", "name:ko": "울진군", "name:en": "Uljin-gun", "layer": "kr_county_osm", "path": "D:\/GitHub\/geodata\/data\/kr_county_osm.json|layername=kr_county_osm" }, "geometry": { "type": "Point", "coordinates": [ 129.4006, 36.993 ] } },
{ "type": "Feature", "properties": { "osmid": 4691930349, "cellid": 67, "name": "예산군", "name:ko": "예산군", "name:en": "Yesan-gun", "layer": "kr_county_osm", "path": "D:\/GitHub\/geodata\/data\/kr_county_osm.json|layername=kr_county_osm" }, "geometry": { "type": "Point", "coordinates": [ 126.8488761, 36.6825466 ] } },
{ "type": "Feature", "properties": { "osmid": 4731921962, "cellid": 68, "name": "보성군", "name:ko": "보성군", "name:en": "Boseong-gun", "layer": "kr_county_osm", "path": "D:\/GitHub\/geodata\/data\/kr_county_osm.json|layername=kr_county_osm" }, "geometry": { "type": "Point", "coordinates": [ 127.0798978, 34.7711356 ] } },
{ "type": "Feature", "properties": { "osmid": 4920826531, "cellid": 69, "name": "화천군", "name:ko": "화천군", "name:en": "Hwacheon-gun", "layer": "kr_county_osm", "path": "D:\/GitHub\/geodata\/data\/kr_county_osm.json|layername=kr_county_osm" }, "geometry": { "type": "Point", "coordinates": [ 127.708, 38.1063 ] } },
{ "type": "Feature", "properties": { "osmid": 4920826535, "cellid": 70, "name": "양구군", "name:ko": "양구군", "name:en": "Yanggu-gun", "layer": "kr_county_osm", "path": "D:\/GitHub\/geodata\/data\/kr_county_osm.json|layername=kr_county_osm" }, "geometry": { "type": "Point", "coordinates": [ 127.9901, 38.1098 ] } },
{ "type": "Feature", "properties": { "osmid": 5141384217, "cellid": 71, "name": "서천군", "name:ko": "서천군", "name:en": "Seocheon-gun", "layer": "kr_county_osm", "path": "D:\/GitHub\/geodata\/data\/kr_county_osm.json|layername=kr_county_osm" }, "geometry": { "type": "Point", "coordinates": [ 126.6917006, 36.0804482 ] } },
{ "type": "Feature", "properties": { "osmid": 5197756930, "cellid": 72, "name": "거창군", "name:ko": "거창군", "name:en": "Geochang-gun", "layer": "kr_county_osm", "path": "D:\/GitHub\/geodata\/data\/kr_county_osm.json|layername=kr_county_osm" }, "geometry": { "type": "Point", "coordinates": [ 127.9138505, 35.6872871 ] } },
{ "type": "Feature", "properties": { "osmid": 5203460235, "cellid": 73, "name": "울주군", "name:ko": "울주군", "name:en": "Ulju-gun", "layer": "kr_county_osm", "path": "D:\/GitHub\/geodata\/data\/kr_county_osm.json|layername=kr_county_osm" }, "geometry": { "type": "Point", "coordinates": [ 129.2426, 35.5219 ] } },
{ "type": "Feature", "properties": { "osmid": 5285480022, "cellid": 74, "name": "청도군", "name:ko": "청도군", "name:en": "Cheongdo-gun", "layer": "kr_county_osm", "path": "D:\/GitHub\/geodata\/data\/kr_county_osm.json|layername=kr_county_osm" }, "geometry": { "type": "Point", "coordinates": [ 128.734846800000014, 35.6473012 ] } },
{ "type": "Feature", "properties": { "osmid": 5299757859, "cellid": 75, "name": "의령군", "name:ko": "의령군", "name:en": "Uiryeong-gun", "layer": "kr_county_osm", "path": "D:\/GitHub\/geodata\/data\/kr_county_osm.json|layername=kr_county_osm" }, "geometry": { "type": "Point", "coordinates": [ 128.2616485, 35.3225404 ] } },
{ "type": "Feature", "properties": { "osmid": 5299796499, "cellid": 76, "name": "함안군", "name:ko": "함안군", "name:en": "Haman-gun", "layer": "kr_county_osm", "path": "D:\/GitHub\/geodata\/data\/kr_county_osm.json|layername=kr_county_osm" }, "geometry": { "type": "Point", "coordinates": [ 128.4065038, 35.2726875 ] } },
{ "type": "Feature", "properties": { "osmid": 5299811821, "cellid": 77, "name": "창녕군", "name:ko": "창녕군", "name:en": "Changnyeong-gun", "layer": "kr_county_osm", "path": "D:\/GitHub\/geodata\/data\/kr_county_osm.json|layername=kr_county_osm" }, "geometry": { "type": "Point", "coordinates": [ 128.4921938, 35.5443876 ] } },
{ "type": "Feature", "properties": { "osmid": 5299815013, "cellid": 78, "name": "고성군", "name:ko": "고성군", "name:en": "Goseong-gun", "layer": "kr_county_osm", "path": "D:\/GitHub\/geodata\/data\/kr_county_osm.json|layername=kr_county_osm" }, "geometry": { "type": "Point", "coordinates": [ 128.322233, 34.9732784 ] } },
{ "type": "Feature", "properties": { "osmid": 5299850160, "cellid": 79, "name": "산청군", "name:ko": "산청군", "name:en": "Sancheong-gun", "layer": "kr_county_osm", "path": "D:\/GitHub\/geodata\/data\/kr_county_osm.json|layername=kr_county_osm" }, "geometry": { "type": "Point", "coordinates": [ 127.873663, 35.4154624 ] } },
{ "type": "Feature", "properties": { "osmid": 5299947051, "cellid": 80, "name": "함양군", "name:ko": "함양군", "name:en": "Hamyang-gun", "layer": "kr_county_osm", "path": "D:\/GitHub\/geodata\/data\/kr_county_osm.json|layername=kr_county_osm" }, "geometry": { "type": "Point", "coordinates": [ 127.7252966, 35.5204145 ] } },
{ "type": "Feature", "properties": { "osmid": 5299958624, "cellid": 81, "name": "합천군", "name:ko": "합천군", "name:en": "Hapcheon-gun", "layer": "kr_county_osm", "path": "D:\/GitHub\/geodata\/data\/kr_county_osm.json|layername=kr_county_osm" }, "geometry": { "type": "Point", "coordinates": [ 128.1658334, 35.5664445 ] } }
]
}
