{"type": "FeatureCollection", "features": [{"type": "Feature", "geometry": {"type": "Point", "coordinates": [129.06211, 36.27087]}, "properties": {"osmid": 414899122, "cellid": 0, "name": "포항-청송 행정경계", "name:ko": "포항-청송 행정경계", "name:en": "Pohang - Cheongsong Haengjeonggyeonggye"}}, {"type": "Feature", "geometry": {"type": "Point", "coordinates": [127.45585, 35.38846]}, "properties": {"osmid": 414951818, "cellid": 1, "name": "호경리마을", "name:ko": "호경리마을", "name:en": "Hogyeong Village"}}, {"type": "Feature", "geometry": {"type": "Point", "coordinates": [127.6840539, 35.4072713]}, "properties": {"osmid": 444253783, "cellid": 2, "name": "금계리마을", "name:ko": "금계리마을", "name:en": "Geumgyeri Village"}}, {"type": "Feature", "geometry": {"type": "Point", "coordinates": [127.7083488, 35.3912223]}, "properties": {"osmid": 993597919, "cellid": 3, "name": "광점동", "name:ko": "광점동", "name:en": "Gwangjeom-dong"}}, {"type": "Feature", "geometry": {"type": "Point", "coordinates": [127.6903731, 35.3785768]}, "properties": {"osmid": 993597956, "cellid": 4, "name": "두지터", "name:ko": "두지터", "name:en": "Dujiteo"}}, {"type": "Feature", "geometry": {"type": "Point", "coordinates": [127.7034871, 35.382428]}, "properties": {"osmid": 993598034, "cellid": 5, "name": "성안", "name:ko": "성안", "name:en": "Seongan"}}, {"type": "Feature", "geometry": {"type": "Point", "coordinates": [127.7150104, 35.4089132]}, "properties": {"osmid": 994344138, "cellid": 6, "name": "모전동", "name:ko": "모전동", "name:en": "Mojeon-dong"}}, {"type": "Feature", "geometry": {"type": "Point", "coordinates": [127.725639, 35.401367]}, "properties": {"osmid": 994344345, "cellid": 7, "name": "송대마을", "name:ko": "송대마을", "name:en": "Songdae Village"}}, {"type": "Feature", "geometry": {"type": "Point", "coordinates": [127.7750068, 35.4000611]}, "properties": {"osmid": 994344425, "cellid": 8, "name": "오봉마을", "name:ko": "오봉마을", "name:en": "Obong Village"}}, {"type": "Feature", "geometry": {"type": "Point", "coordinates": [127.5268578, 35.2007743]}, "properties": {"osmid": 1002896069, "cellid": 9, "name": "단산마을", "name:ko": "단산마을", "name:en": "Dansan Village"}}, {"type": "Feature", "geometry": {"type": "Point", "coordinates": [127.5302231, 35.231735]}, "properties": {"osmid": 1002896543, "cellid": 10, "name": "중대마을", "name:ko": "중대마을", "name:en": "Jungdae Village"}}, {"type": "Feature", "geometry": {"type": "Point", "coordinates": [127.5270006, 35.2551041]}, "properties": {"osmid": 1002896582, "cellid": 11, "name": "밤재마을", "name:ko": "밤재마을", "name:en": "Bamjae Village"}}, {"type": "Feature", "geometry": {"type": "Point", "coordinates": [127.5996225, 35.2648808]}, "properties": {"osmid": 1002897453, "cellid": 12, "name": "농평마을", "name:ko": "중대마을", "name:en": "Nongpyeong Village"}}, {"type": "Feature", "geometry": {"type": "Point", "coordinates": [127.5284701, 35.1996154]}, "properties": {"osmid": 1002897543, "cellid": 13, "name": "구만마을", "name:ko": "구만마을", "name:en": "Guman Village"}}, {"type": "Feature", "geometry": {"type": "Point", "coordinates": [127.6446348, 35.2369694]}, "properties": {"osmid": 1003291542, "cellid": 14, "name": "목압마을", "name:ko": "목압마을", "name:en": "Mokap Village"}}, {"type": "Feature", "geometry": {"type": "Point", "coordinates": [127.6122798, 35.274865]}, "properties": {"osmid": 1003291765, "cellid": 15, "name": "목통마을", "name:ko": "목통마을", "name:en": "Moktong Village"}}, {"type": "Feature", "geometry": {"type": "Point", "coordinates": [127.683868, 35.145725]}, "properties": {"osmid": 1003293764, "cellid": 16, "name": "외둔마을", "name:ko": "외둔마을", "name:en": "Oedun Village"}}, {"type": "Feature", "geometry": {"type": "Point", "coordinates": [127.8289272, 35.2618973]}, "properties": {"osmid": 1004977468, "cellid": 17, "name": "국동마을", "name:ko": "국동마을", "name:en": "Gukdong Village"}}, {"type": "Feature", "geometry": {"type": "Point", "coordinates": [127.6349963, 35.3028]}, "properties": {"osmid": 1004977485, "cellid": 18, "name": "삼정마을", "name:ko": "삼정마을", "name:en": "Samjeong Village"}}, {"type": "Feature", "geometry": {"type": "Point", "coordinates": [127.7846205, 35.3808999]}, "properties": {"osmid": 1004977953, "cellid": 19, "name": "외곡마을", "name:ko": "외곡마을", "name:en": "Oegoke Village"}}, {"type": "Feature", "geometry": {"type": "Point", "coordinates": [127.7687583, 35.3730982]}, "properties": {"osmid": 1004978066, "cellid": 20, "name": "윗새재마을", "name:ko": "윗새재마을", "name:en": "Witsaejae Village"}}, {"type": "Feature", "geometry": {"type": "Point", "coordinates": [127.6648526, 35.2898577]}, "properties": {"osmid": 1004978343, "cellid": 21, "name": "대성동", "name:ko": "대성동", "name:en": "Daeseong-dong"}}, {"type": "Feature", "geometry": {"type": "Point", "coordinates": [127.7987306, 35.3616262]}, "properties": {"osmid": 1004978697, "cellid": 22, "name": "유평마을", "name:ko": "유평마을", "name:en": "Yupyeong Village"}}, {"type": "Feature", "geometry": {"type": "Point", "coordinates": [127.7399768, 35.2864927]}, "properties": {"osmid": 1004978841, "cellid": 23, "name": "판기마을", "name:ko": "판기마을", "name:en": "Pangi Village"}}, {"type": "Feature", "geometry": {"type": "Point", "coordinates": [127.7860759, 35.314582]}, "properties": {"osmid": 1005303555, "cellid": 24, "name": "안내원마을", "name:ko": "안내원마을", "name:en": "Annaewon Village"}}, {"type": "Feature", "geometry": {"type": "Point", "coordinates": [127.830987, 35.4046187]}, "properties": {"osmid": 1007601233, "cellid": 25, "name": "지막마을", "name:ko": "지막마을", "name:en": "Jimak Village"}}, {"type": "Feature", "geometry": {"type": "Point", "coordinates": [127.821262, 35.3950206]}, "properties": {"osmid": 1007606505, "cellid": 26, "name": "중촌마을", "name:ko": "중촌마을", "name:en": "Jungchon Village"}}, {"type": "Feature", "geometry": {"type": "Point", "coordinates": [127.8585764, 35.4157419]}, "properties": {"osmid": 1007609530, "cellid": 27, "name": "대정마을", "name:ko": "대정마을", "name:en": "Daejeong Village"}}, {"type": "Feature", "geometry": {"type": "Point", "coordinates": [127.6609362, 35.3902878]}, "properties": {"osmid": 1014150481, "cellid": 28, "name": "가채마을", "name:ko": "가채마을", "name:en": "Gachae Village"}}, {"type": "Feature", "geometry": {"type": "Point", "coordinates": [127.6806301, 35.3691425]}, "properties": {"osmid": 1014150963, "cellid": 29, "name": "하백무", "name:ko": "하백무", "name:en": "Habaekmu"}}, {"type": "Feature", "geometry": {"type": "Point", "coordinates": [127.4502338, 35.3976809]}, "properties": {"osmid": 1014153163, "cellid": 30, "name": "내송마을", "name:ko": "내송마을", "name:en": "Naesong Village"}}, {"type": "Feature", "geometry": {"type": "Point", "coordinates": [127.6813305, 35.364661]}, "properties": {"osmid": 1014153189, "cellid": 31, "name": "중백무", "name:ko": "하백무", "name:en": "Jungbaekmu"}}, {"type": "Feature", "geometry": {"type": "Point", "coordinates": [127.5860101, 35.4074924]}, "properties": {"osmid": 1014197496, "cellid": 32, "name": "팔랑마을", "name:ko": "팔랑마을", "name:en": "Pallang Village"}}, {"type": "Feature", "geometry": {"type": "Point", "coordinates": [127.4396683, 35.2804944]}, "properties": {"osmid": 1037202254, "cellid": 33, "name": "온동마을 (Ondong-maeul)", "name:ko": "온동마을", "name:en": "Ondongmaeul"}}, {"type": "Feature", "geometry": {"type": "Point", "coordinates": [127.6438417, 35.3590067]}, "properties": {"osmid": 1038415220, "cellid": 34, "name": "음정마을", "name:ko": "음정마을", "name:en": "Eumjeong Village"}}, {"type": "Feature", "geometry": {"type": "Point", "coordinates": [127.6441596, 35.361968]}, "properties": {"osmid": 1047424849, "cellid": 35, "name": "양정마을", "name:ko": "양정마을", "name:en": "Yangjeong Village"}}, {"type": "Feature", "geometry": {"type": "Point", "coordinates": [127.5844881, 35.3859561]}, "properties": {"osmid": 1070453021, "cellid": 36, "name": "하부운", "name:ko": "하부운", "name:en": "HaBuun"}}, {"type": "Feature", "geometry": {"type": "Point", "coordinates": [127.5584527, 35.3646047]}, "properties": {"osmid": 1070453231, "cellid": 37, "name": "덕동마을", "name:ko": "덕동마을", "name:en": "Deokdong Village"}}, {"type": "Feature", "geometry": {"type": "Point", "coordinates": [127.6502503, 35.3992378]}, "properties": {"osmid": 1155766678, "cellid": 38, "name": "도마마을", "name:ko": "도마마을", "name:en": "Doma Village"}}, {"type": "Feature", "geometry": {"type": "Point", "coordinates": [127.8007719, 35.6522248]}, "properties": {"osmid": 1618820825, "cellid": 39, "name": "안심마을", "name:ko": "안심마을", "name:en": "Ansim Village"}}, {"type": "Feature", "geometry": {"type": "Point", "coordinates": [129.3296443, 35.676268]}, "properties": {"osmid": 1659923352, "cellid": 40, "name": "모화 2리", "name:ko": "모화 2리", "name:en": null}}, {"type": "Feature", "geometry": {"type": "Point", "coordinates": [129.1715399, 35.4373684]}, "properties": {"osmid": 1821057219, "cellid": 41, "name": "와지", "name:ko": "와지", "name:en": null}}, {"type": "Feature", "geometry": {"type": "Point", "coordinates": [127.5404529, 35.469367]}, "properties": {"osmid": 1840645414, "cellid": 42, "name": "매요마을", "name:ko": "매요마을", "name:en": "Maeyo Village"}}, {"type": "Feature", "geometry": {"type": "Point", "coordinates": [127.5745565, 35.4839496]}, "properties": {"osmid": 1841958793, "cellid": 43, "name": "당동마을", "name:ko": "당동마을", "name:en": "Dangdong village"}}, {"type": "Feature", "geometry": {"type": "Point", "coordinates": [127.718833, 35.770683]}, "properties": {"osmid": 1844672172, "cellid": 44, "name": "황점마을", "name:ko": "황점마을", "name:en": "Hwangjeom village"}}, {"type": "Feature", "geometry": {"type": "Point", "coordinates": [127.2450741, 36.9342423]}, "properties": {"osmid": 2108608039, "cellid": 45, "name": "사갑", "name:ko": null, "name:en": null}}, {"type": "Feature", "geometry": {"type": "Point", "coordinates": [127.6291157, 35.6814878]}, "properties": {"osmid": 2211323193, "cellid": 46, "name": "주촌마을", "name:ko": "주촌마을", "name:en": null}}, {"type": "Feature", "geometry": {"type": "Point", "coordinates": [129.4211844, 36.7218814]}, "properties": {"osmid": 2457803543, "cellid": 47, "name": "학곡리", "name:ko": "학곡리", "name:en": null}}, {"type": "Feature", "geometry": {"type": "Point", "coordinates": [127.6283513, 35.1994697]}, "properties": {"osmid": 2517585664, "cellid": 48, "name": "법하마을", "name:ko": "법하마을", "name:en": "Beopha Village"}}, {"type": "Feature", "geometry": {"type": "Point", "coordinates": [128.0516632, 35.7043347]}, "properties": {"osmid": 2559431242, "cellid": 49, "name": "화곡마을", "name:ko": "화곡마을", "name:en": "Hwagok"}}, {"type": "Feature", "geometry": {"type": "Point", "coordinates": [126.2416854, 33.3810414]}, "properties": {"osmid": 2921695525, "cellid": 50, "name": "라온프라이빗타운", "name:ko": "라온프라이빗타운", "name:en": null}}, {"type": "Feature", "geometry": {"type": "Point", "coordinates": [128.9524263, 35.2302444]}, "properties": {"osmid": 3005922576, "cellid": 51, "name": "신명마을", "name:ko": "신명마을", "name:en": null}}, {"type": "Feature", "geometry": {"type": "Point", "coordinates": [126.2150853, 33.3768284]}, "properties": {"osmid": 3785829077, "cellid": 52, "name": "월령선인장마을", "name:ko": "월령선인장마을", "name:en": null}}, {"type": "Feature", "geometry": {"type": "Point", "coordinates": [126.4504589, 33.4961614]}, "properties": {"osmid": 3786969139, "cellid": 53, "name": "현사마을", "name:ko": "현사마을", "name:en": null}}, {"type": "Feature", "geometry": {"type": "Point", "coordinates": [127.9327865, 35.8357339]}, "properties": {"osmid": 4009253126, "cellid": 54, "name": "금광마을", "name:ko": "금광마을", "name:en": "Geumgwang"}}, {"type": "Feature", "geometry": {"type": "Point", "coordinates": [128.3256488, 35.4715359]}, "properties": {"osmid": 4059374090, "cellid": 55, "name": "감암", "name:ko": null, "name:en": null}}, {"type": "Feature", "geometry": {"type": "Point", "coordinates": [128.3225535, 35.46628]}, "properties": {"osmid": 4059374091, "cellid": 56, "name": "대성동", "name:ko": null, "name:en": null}}, {"type": "Feature", "geometry": {"type": "Point", "coordinates": [128.3253269, 35.4645542]}, "properties": {"osmid": 4059374092, "cellid": 57, "name": "동동", "name:ko": null, "name:en": null}}, {"type": "Feature", "geometry": {"type": "Point", "coordinates": [128.3295594, 35.4512708]}, "properties": {"osmid": 4059374093, "cellid": 58, "name": "상막곡", "name:ko": null, "name:en": null}}, {"type": "Feature", "geometry": {"type": "Point", "coordinates": [128.3180581, 35.4647224]}, "properties": {"osmid": 4059374094, "cellid": 59, "name": "서동1구", "name:ko": null, "name:en": null}}, {"type": "Feature", "geometry": {"type": "Point", "coordinates": [128.3173285, 35.4629922]}, "properties": {"osmid": 4059374095, "cellid": 60, "name": "서동2구", "name:ko": null, "name:en": null}}, {"type": "Feature", "geometry": {"type": "Point", "coordinates": [128.3441077, 35.4369122]}, "properties": {"osmid": 4059374096, "cellid": 61, "name": "세간", "name:ko": null, "name:en": null}}, {"type": "Feature", "geometry": {"type": "Point", "coordinates": [128.3226554, 35.4642309]}, "properties": {"osmid": 4059374097, "cellid": 62, "name": "중동", "name:ko": null, "name:en": null}}, {"type": "Feature", "geometry": {"type": "Point", "coordinates": [128.3323704, 35.4768394]}, "properties": {"osmid": 4059374098, "cellid": 63, "name": "창곡", "name:ko": null, "name:en": null}}, {"type": "Feature", "geometry": {"type": "Point", "coordinates": [128.3377777, 35.4507989]}, "properties": {"osmid": 4059374099, "cellid": 64, "name": "하막곡", "name:ko": null, "name:en": null}}, {"type": "Feature", "geometry": {"type": "Point", "coordinates": [128.3245008, 35.4682898]}, "properties": {"osmid": 4059374100, "cellid": 65, "name": "현동", "name:ko": null, "name:en": null}}, {"type": "Feature", "geometry": {"type": "Point", "coordinates": [126.2921425, 33.2954303]}, "properties": {"osmid": 4239425134, "cellid": 66, "name": "Canons Town", "name:ko": "Canons Town", "name:en": null}}, {"type": "Feature", "geometry": {"type": "Point", "coordinates": [127.925103, 35.6465988]}, "properties": {"osmid": 4630931099, "cellid": 67, "name": "청림마을입구", "name:ko": "청림마을입구", "name:en": null}}, {"type": "Feature", "geometry": {"type": "Point", "coordinates": [127.4352605, 37.0697549]}, "properties": {"osmid": 4632492559, "cellid": 68, "name": "남산마을", "name:ko": "남산마을", "name:en": null}}, {"type": "Feature", "geometry": {"type": "Point", "coordinates": [126.6804954, 37.5752425]}, "properties": {"osmid": 4634029413, "cellid": 69, "name": "독가촌", "name:ko": null, "name:en": null}}, {"type": "Feature", "geometry": {"type": "Point", "coordinates": [128.7443999, 35.6402745]}, "properties": {"osmid": 4637810696, "cellid": 70, "name": "부자마을", "name:ko": null, "name:en": null}}, {"type": "Feature", "geometry": {"type": "Point", "coordinates": [127.8531877, 35.6537794]}, "properties": {"osmid": 4639297580, "cellid": 71, "name": "박동마을", "name:ko": "박동마을", "name:en": null}}, {"type": "Feature", "geometry": {"type": "Point", "coordinates": [127.901496, 35.8583307]}, "properties": {"osmid": 4641606052, "cellid": 72, "name": "송산", "name:ko": "송산", "name:en": null}}, {"type": "Feature", "geometry": {"type": "Point", "coordinates": [128.699499, 35.7238508]}, "properties": {"osmid": 4642009416, "cellid": 73, "name": "상대곡리", "name:ko": "상대곡리", "name:en": null}}, {"type": "Feature", "geometry": {"type": "Point", "coordinates": [128.1542629, 37.008766]}, "properties": {"osmid": 4642100243, "cellid": 74, "name": "연곡", "name:ko": null, "name:en": null}}, {"type": "Feature", "geometry": {"type": "Point", "coordinates": [128.4759443, 35.4481333]}, "properties": {"osmid": 4644186287, "cellid": 75, "name": "봉화", "name:ko": null, "name:en": null}}, {"type": "Feature", "geometry": {"type": "Point", "coordinates": [126.5075927, 34.9413274]}, "properties": {"osmid": 4644270789, "cellid": 76, "name": "호동", "name:ko": null, "name:en": null}}, {"type": "Feature", "geometry": {"type": "Point", "coordinates": [126.50877, 34.9375957]}, "properties": {"osmid": 4644270790, "cellid": 77, "name": "구산", "name:ko": null, "name:en": null}}, {"type": "Feature", "geometry": {"type": "Point", "coordinates": [126.5094059, 34.9322581]}, "properties": {"osmid": 4644270791, "cellid": 78, "name": "백유동", "name:ko": null, "name:en": null}}, {"type": "Feature", "geometry": {"type": "Point", "coordinates": [126.4733758, 34.8915289]}, "properties": {"osmid": 4647053081, "cellid": 79, "name": "죽전마을", "name:ko": null, "name:en": null}}, {"type": "Feature", "geometry": {"type": "Point", "coordinates": [129.0850534, 35.5795263]}, "properties": {"osmid": 4647064750, "cellid": 80, "name": "후리 마을", "name:ko": "후리 마을", "name:en": null}}, {"type": "Feature", "geometry": {"type": "Point", "coordinates": [126.9737315, 35.0319611]}, "properties": {"osmid": 4648189900, "cellid": 81, "name": "감도리3", "name:ko": "감도리3", "name:en": "Gamdori3gu"}}, {"type": "Feature", "geometry": {"type": "Point", "coordinates": [128.8886938, 36.9070041]}, "properties": {"osmid": 4661130995, "cellid": 82, "name": "중간들", "name:ko": null, "name:en": null}}, {"type": "Feature", "geometry": {"type": "Point", "coordinates": [126.624669, 34.8587739]}, "properties": {"osmid": 4663133584, "cellid": 83, "name": "금성마을", "name:ko": null, "name:en": null}}, {"type": "Feature", "geometry": {"type": "Point", "coordinates": [128.7440523, 36.9037515]}, "properties": {"osmid": 4665510961, "cellid": 84, "name": "닭실마을", "name:ko": null, "name:en": null}}, {"type": "Feature", "geometry": {"type": "Point", "coordinates": [126.5931167, 37.6315333]}, "properties": {"osmid": 4666503068, "cellid": 85, "name": "능동마을", "name:ko": "능동마을", "name:en": null}}, {"type": "Feature", "geometry": {"type": "Point", "coordinates": [127.6042786, 34.9748047]}, "properties": {"osmid": 4666946999, "cellid": 86, "name": "기두마을", "name:ko": null, "name:en": null}}, {"type": "Feature", "geometry": {"type": "Point", "coordinates": [127.5819469, 34.9838558]}, "properties": {"osmid": 4667022395, "cellid": 87, "name": "신기마을", "name:ko": null, "name:en": null}}, {"type": "Feature", "geometry": {"type": "Point", "coordinates": [128.5539682, 37.8605319]}, "properties": {"osmid": 4676218302, "cellid": 88, "name": "약수동", "name:ko": "약수동", "name:en": null}}, {"type": "Feature", "geometry": {"type": "Point", "coordinates": [126.9368512, 37.2839264]}, "properties": {"osmid": 4682652513, "cellid": 89, "name": "오룡골마을", "name:ko": "오룡골마을", "name:en": null}}, {"type": "Feature", "geometry": {"type": "Point", "coordinates": [126.5956941, 34.9324877]}, "properties": {"osmid": 4701326476, "cellid": 90, "name": "화산마을", "name:ko": null, "name:en": null}}, {"type": "Feature", "geometry": {"type": "Point", "coordinates": [126.6061838, 33.2407957]}, "properties": {"osmid": 4821569243, "cellid": 91, "name": "볼레낭마을", "name:ko": "볼레낭마을", "name:en": null}}, {"type": "Feature", "geometry": {"type": "Point", "coordinates": [126.8442536, 33.325542]}, "properties": {"osmid": 4821608816, "cellid": 92, "name": "당포마을", "name:ko": "당포마을", "name:en": null}}, {"type": "Feature", "geometry": {"type": "Point", "coordinates": [126.720047, 33.2817249]}, "properties": {"osmid": 4821608922, "cellid": 93, "name": "비안동", "name:ko": "비안동", "name:en": null}}, {"type": "Feature", "geometry": {"type": "Point", "coordinates": [126.9693314, 37.5050263]}, "properties": {"osmid": 4943392409, "cellid": 94, "name": "비계", "name:ko": null, "name:en": null}}, {"type": "Feature", "geometry": {"type": "Point", "coordinates": [126.8962204, 37.3433323]}, "properties": {"osmid": 4948066972, "cellid": 95, "name": "납덕골", "name:ko": null, "name:en": null}}, {"type": "Feature", "geometry": {"type": "Point", "coordinates": [126.9030452, 37.3411503]}, "properties": {"osmid": 4948066973, "cellid": 96, "name": "덕고개", "name:ko": null, "name:en": null}}, {"type": "Feature", "geometry": {"type": "Point", "coordinates": [126.9666934, 37.3351927]}, "properties": {"osmid": 5153085631, "cellid": 97, "name": "교동", "name:ko": "교동", "name:en": null}}, {"type": "Feature", "geometry": {"type": "Point", "coordinates": [126.962507, 37.3066712]}, "properties": {"osmid": 5153085637, "cellid": 98, "name": "도룡마을", "name:ko": "도룡마을", "name:en": null}}, {"type": "Feature", "geometry": {"type": "Point", "coordinates": [126.9543884, 37.304497]}, "properties": {"osmid": 5153085638, "cellid": 99, "name": "잿말", "name:ko": "잿말", "name:en": null}}, {"type": "Feature", "geometry": {"type": "Point", "coordinates": [126.9384124, 37.3078718]}, "properties": {"osmid": 5153085639, "cellid": 100, "name": "아랫새우대", "name:ko": "아랫새우대", "name:en": null}}, {"type": "Feature", "geometry": {"type": "Point", "coordinates": [126.9379066, 37.3101238]}, "properties": {"osmid": 5153085640, "cellid": 101, "name": "중간새우대", "name:ko": "중간새우대", "name:en": null}}, {"type": "Feature", "geometry": {"type": "Point", "coordinates": [126.9377189, 37.3161914]}, "properties": {"osmid": 5153085641, "cellid": 102, "name": "윗새우대", "name:ko": "윗새우대", "name:en": null}}, {"type": "Feature", "geometry": {"type": "Point", "coordinates": [127.5524592, 34.8094837]}, "properties": {"osmid": 5413630745, "cellid": 103, "name": "반월마을", "name:ko": null, "name:en": null}}, {"type": "Feature", "geometry": {"type": "Point", "coordinates": [127.5689587, 34.7776455]}, "properties": {"osmid": 5413669448, "cellid": 104, "name": "궁항마을", "name:ko": null, "name:en": null}}, {"type": "Feature", "geometry": {"type": "Point", "coordinates": [127.5765236, 34.7666884]}, "properties": {"osmid": 5413669449, "cellid": 105, "name": "달천마을", "name:ko": null, "name:en": null}}, {"type": "Feature", "geometry": {"type": "Point", "coordinates": [128.8882554, 35.3733601]}, "properties": {"osmid": 5417851487, "cellid": 106, "name": "중리", "name:ko": "중리", "name:en": null}}, {"type": "Feature", "geometry": {"type": "Point", "coordinates": [126.36816, 33.2386499]}, "properties": {"osmid": 5546844468, "cellid": 107, "name": "소기왓", "name:ko": "소기왓", "name:en": "Sogiwat"}}, {"type": "Feature", "geometry": {"type": "Point", "coordinates": [128.7032785, 35.1065516]}, "properties": {"osmid": 5851415247, "cellid": 108, "name": "수치마을", "name:ko": null, "name:en": null}}, {"type": "Feature", "geometry": {"type": "Point", "coordinates": [129.4114145, 36.7011616]}, "properties": {"osmid": 5989574393, "cellid": 109, "name": "Beotnae", "name:ko": "Beotnae", "name:en": null}}, {"type": "Feature", "geometry": {"type": "Point", "coordinates": [126.9868684, 37.3583896]}, "properties": {"osmid": 5992451882, "cellid": 110, "name": "오매기", "name:ko": "오매기", "name:en": null}}, {"type": "Feature", "geometry": {"type": "Point", "coordinates": [126.9672561, 37.3475414]}, "properties": {"osmid": 5992451883, "cellid": 111, "name": "안골", "name:ko": "안골", "name:en": null}}, {"type": "Feature", "geometry": {"type": "Point", "coordinates": [126.9680822, 37.3406325]}, "properties": {"osmid": 5992451884, "cellid": 112, "name": "골우물", "name:ko": "골우물", "name:en": null}}, {"type": "Feature", "geometry": {"type": "Point", "coordinates": [126.9737577, 37.3385512]}, "properties": {"osmid": 5992466185, "cellid": 113, "name": "고고리", "name:ko": "고고리", "name:en": null}}, {"type": "Feature", "geometry": {"type": "Point", "coordinates": [126.9794869, 37.334832]}, "properties": {"osmid": 5992466186, "cellid": 114, "name": "골사그내", "name:ko": "골사그내", "name:en": null}}, {"type": "Feature", "geometry": {"type": "Point", "coordinates": [126.9803452, 37.3396004]}, "properties": {"osmid": 5992466187, "cellid": 115, "name": "통미마을", "name:ko": "통미마을", "name:en": null}}, {"type": "Feature", "geometry": {"type": "Point", "coordinates": [126.9881719, 37.3448163]}, "properties": {"osmid": 5992466188, "cellid": 116, "name": "왕림마을", "name:ko": "왕림마을", "name:en": null}}, {"type": "Feature", "geometry": {"type": "Point", "coordinates": [127.4733119, 35.1890726]}, "properties": {"osmid": 6089367667, "cellid": 117, "name": "Jugyeon", "name:ko": null, "name:en": "Jugyeon Village"}}, {"type": "Feature", "geometry": {"type": "Point", "coordinates": [127.8122718, 35.0091881]}, "properties": {"osmid": 6224308208, "cellid": 118, "name": "대덕마을", "name:ko": "대덕마을", "name:en": "Daedeok Village"}}, {"type": "Feature", "geometry": {"type": "Point", "coordinates": [127.8946439, 37.3689466]}, "properties": {"osmid": 6238000523, "cellid": 119, "name": "신평1리", "name:ko": null, "name:en": null}}, {"type": "Feature", "geometry": {"type": "Point", "coordinates": [127.8957213, 37.366395]}, "properties": {"osmid": 6238000524, "cellid": 120, "name": "지정문화마을", "name:ko": null, "name:en": null}}, {"type": "Feature", "geometry": {"type": "Point", "coordinates": [127.7994525, 37.2698755]}, "properties": {"osmid": 6263684211, "cellid": 121, "name": "후용리2리", "name:ko": null, "name:en": null}}, {"type": "Feature", "geometry": {"type": "Point", "coordinates": [127.800169, 37.2733605]}, "properties": {"osmid": 6263684212, "cellid": 122, "name": "후용리1리", "name:ko": null, "name:en": null}}, {"type": "Feature", "geometry": {"type": "Point", "coordinates": [127.841481, 37.3135225]}, "properties": {"osmid": 6297552945, "cellid": 123, "name": "명본산호수마을", "name:ko": null, "name:en": null}}, {"type": "Feature", "geometry": {"type": "Point", "coordinates": [127.8380194, 37.309957]}, "properties": {"osmid": 6297552946, "cellid": 124, "name": "건등3리", "name:ko": null, "name:en": null}}, {"type": "Feature", "geometry": {"type": "Point", "coordinates": [127.6369377, 37.3146368]}, "properties": {"osmid": 6298911292, "cellid": 125, "name": "현암3리", "name:ko": null, "name:en": null}}, {"type": "Feature", "geometry": {"type": "Point", "coordinates": [129.0792682, 35.6698595]}, "properties": {"osmid": 6382208230, "cellid": 126, "name": "와리마을", "name:ko": null, "name:en": null}}, {"type": "Feature", "geometry": {"type": "Point", "coordinates": [126.226328, 33.3272428]}, "properties": {"osmid": 6639660669, "cellid": 127, "name": "아홉굿마을", "name:ko": "아홉굿마을", "name:en": null}}, {"type": "Feature", "geometry": {"type": "Point", "coordinates": [126.9002512, 37.3137551]}, "properties": {"osmid": 6778949183, "cellid": 128, "name": "삼천리", "name:ko": null, "name:en": null}}, {"type": "Feature", "geometry": {"type": "Point", "coordinates": [126.8884288, 37.3252764]}, "properties": {"osmid": 6778949184, "cellid": 129, "name": "둔터", "name:ko": null, "name:en": null}}, {"type": "Feature", "geometry": {"type": "Point", "coordinates": [127.8551831, 37.3824153]}, "properties": {"osmid": 6880741418, "cellid": 130, "name": "월송1리", "name:ko": null, "name:en": null}}, {"type": "Feature", "geometry": {"type": "Point", "coordinates": [127.0230192, 37.3951997]}, "properties": {"osmid": 7114418447, "cellid": 131, "name": "원터", "name:ko": null, "name:en": null}}, {"type": "Feature", "geometry": {"type": "Point", "coordinates": [127.1731025, 37.3291712]}, "properties": {"osmid": 7780518614, "cellid": 132, "name": "소우리", "name:ko": null, "name:en": null}}, {"type": "Feature", "geometry": {"type": "Point", "coordinates": [127.1789928, 37.3350557]}, "properties": {"osmid": 7780518615, "cellid": 133, "name": "안골", "name:ko": null, "name:en": null}}, {"type": "Feature", "geometry": {"type": "Point", "coordinates": [127.1602346, 37.3273474]}, "properties": {"osmid": 7780518616, "cellid": 134, "name": "본동", "name:ko": null, "name:en": null}}, {"type": "Feature", "geometry": {"type": "Point", "coordinates": [127.1754962, 37.3418634]}, "properties": {"osmid": 7780518617, "cellid": 135, "name": "능골", "name:ko": null, "name:en": null}}, {"type": "Feature", "geometry": {"type": "Point", "coordinates": [127.1562534, 37.331262]}, "properties": {"osmid": 7780518618, "cellid": 136, "name": "양촌", "name:ko": null, "name:en": null}}, {"type": "Feature", "geometry": {"type": "Point", "coordinates": [127.1830925, 37.3423311]}, "properties": {"osmid": 7780518619, "cellid": 137, "name": "왕림", "name:ko": null, "name:en": null}}, {"type": "Feature", "geometry": {"type": "Point", "coordinates": [127.16925, 37.350816]}, "properties": {"osmid": 7796785474, "cellid": 138, "name": "창뜰", "name:ko": null, "name:en": null}}, {"type": "Feature", "geometry": {"type": "Point", "coordinates": [127.1569959, 37.3481025]}, "properties": {"osmid": 7800075553, "cellid": 139, "name": "수레실", "name:ko": null, "name:en": null}}, {"type": "Feature", "geometry": {"type": "Point", "coordinates": [127.165173, 37.3648615]}, "properties": {"osmid": 7801227689, "cellid": 140, "name": "동막골", "name:ko": null, "name:en": null}}, {"type": "Feature", "geometry": {"type": "Point", "coordinates": [127.1618147, 37.3715685]}, "properties": {"osmid": 7801227690, "cellid": 141, "name": "새말부락", "name:ko": null, "name:en": null}}, {"type": "Feature", "geometry": {"type": "Point", "coordinates": [127.1618605, 37.3548658]}, "properties": {"osmid": 7801227691, "cellid": 142, "name": "용산골", "name:ko": null, "name:en": null}}, {"type": "Feature", "geometry": {"type": "Point", "coordinates": [127.1485367, 37.3603588]}, "properties": {"osmid": 7801227692, "cellid": 143, "name": "태재", "name:ko": null, "name:en": null}}, {"type": "Feature", "geometry": {"type": "Point", "coordinates": [127.143309, 37.3550512]}, "properties": {"osmid": 7801227693, "cellid": 144, "name": "웃태재", "name:ko": null, "name:en": null}}, {"type": "Feature", "geometry": {"type": "Point", "coordinates": [127.194956, 37.3357036]}, "properties": {"osmid": 7801253216, "cellid": 145, "name": "동산", "name:ko": null, "name:en": null}}, {"type": "Feature", "geometry": {"type": "Point", "coordinates": [127.1995235, 37.3439213]}, "properties": {"osmid": 7801253217, "cellid": 146, "name": "되치미", "name:ko": null, "name:en": null}}, {"type": "Feature", "geometry": {"type": "Point", "coordinates": [127.1541581, 37.3174738]}, "properties": {"osmid": 7801253218, "cellid": 147, "name": "사기막골", "name:ko": null, "name:en": null}}, {"type": "Feature", "geometry": {"type": "Point", "coordinates": [127.2028892, 37.3553414]}, "properties": {"osmid": 7801253219, "cellid": 148, "name": "봉골", "name:ko": null, "name:en": null}}, {"type": "Feature", "geometry": {"type": "Point", "coordinates": [127.1794716, 37.3446742]}, "properties": {"osmid": 7801263584, "cellid": 149, "name": "광주말", "name:ko": null, "name:en": null}}, {"type": "Feature", "geometry": {"type": "Point", "coordinates": [127.1753261, 37.3736779]}, "properties": {"osmid": 7801281663, "cellid": 150, "name": "퉁접골", "name:ko": null, "name:en": null}}, {"type": "Feature", "geometry": {"type": "Point", "coordinates": [127.1705971, 37.3408235]}, "properties": {"osmid": 7801281664, "cellid": 151, "name": "원촌", "name:ko": null, "name:en": null}}, {"type": "Feature", "geometry": {"type": "Point", "coordinates": [127.2051925, 37.3421762]}, "properties": {"osmid": 7863432123, "cellid": 152, "name": "잣나무골", "name:ko": null, "name:en": null}}, {"type": "Feature", "geometry": {"type": "Point", "coordinates": [126.9273663, 37.2925341]}, "properties": {"osmid": 7867170727, "cellid": 153, "name": "비늘치", "name:ko": null, "name:en": null}}, {"type": "Feature", "geometry": {"type": "Point", "coordinates": [126.925258, 37.3060188]}, "properties": {"osmid": 7867170728, "cellid": 154, "name": "안골", "name:ko": null, "name:en": null}}, {"type": "Feature", "geometry": {"type": "Point", "coordinates": [126.7429273, 35.7181009]}, "properties": {"osmid": 8015829881, "cellid": 155, "name": "안쟁갈마을", "name:ko": "안쟁갈마을", "name:en": "Anjaenggal"}}, {"type": "Feature", "geometry": {"type": "Point", "coordinates": [126.7406344, 35.7196489]}, "properties": {"osmid": 8015829882, "cellid": 156, "name": "쟁갈마을", "name:ko": "쟁갈마을", "name:en": "Jaenggal"}}, {"type": "Feature", "geometry": {"type": "Point", "coordinates": [126.7338368, 35.7157487]}, "properties": {"osmid": 8015829883, "cellid": 157, "name": "교동문화마을", "name:ko": "교동문화마을", "name:en": "Gyodong Cultural Village"}}, {"type": "Feature", "geometry": {"type": "Point", "coordinates": [126.7347411, 35.7326725]}, "properties": {"osmid": 8015829884, "cellid": 158, "name": "동중1마을", "name:ko": "동중1마을", "name:en": "Dongjung-1"}}, {"type": "Feature", "geometry": {"type": "Point", "coordinates": [126.7333396, 35.7336005]}, "properties": {"osmid": 8015875685, "cellid": 159, "name": "성황마을", "name:ko": "성황마을", "name:en": "Seonghwang"}}, {"type": "Feature", "geometry": {"type": "Point", "coordinates": [126.734911, 35.7337355]}, "properties": {"osmid": 8015875687, "cellid": 160, "name": "동중2마을", "name:ko": "동중2마을", "name:en": "Dongjung-2"}}, {"type": "Feature", "geometry": {"type": "Point", "coordinates": [126.7369213, 35.7329139]}, "properties": {"osmid": 8015875688, "cellid": 161, "name": "구영마을", "name:ko": "구영마을", "name:en": "Guyeong"}}, {"type": "Feature", "geometry": {"type": "Point", "coordinates": [126.7383617, 35.7311068]}, "properties": {"osmid": 8015875689, "cellid": 162, "name": "동중3마을", "name:ko": "동중3마을", "name:en": "Dongjung-3"}}, {"type": "Feature", "geometry": {"type": "Point", "coordinates": [126.7356613, 35.7296042]}, "properties": {"osmid": 8015875695, "cellid": 163, "name": "동중4마을", "name:ko": "동중4마을", "name:en": "Dongjung-4"}}, {"type": "Feature", "geometry": {"type": "Point", "coordinates": [126.7339217, 35.7300775]}, "properties": {"osmid": 8015875698, "cellid": 164, "name": "동중6마을", "name:ko": "동중6마을", "name:en": "Dongjung-6"}}, {"type": "Feature", "geometry": {"type": "Point", "coordinates": [126.7345578, 35.7286306]}, "properties": {"osmid": 8015875699, "cellid": 165, "name": "부풍마을", "name:ko": "부풍마을", "name:en": "Bupung"}}, {"type": "Feature", "geometry": {"type": "Point", "coordinates": [126.735531, 35.7277543]}, "properties": {"osmid": 8015875701, "cellid": 166, "name": "동중5마을", "name:ko": "동중5마을", "name:en": "Dongjung-5"}}, {"type": "Feature", "geometry": {"type": "Point", "coordinates": [126.7323495, 35.7302813]}, "properties": {"osmid": 8015875702, "cellid": 167, "name": "서외1마을", "name:ko": "서외1마을", "name:en": "Seooe-1"}}, {"type": "Feature", "geometry": {"type": "Point", "coordinates": [126.7321894, 35.7284626]}, "properties": {"osmid": 8015875703, "cellid": 168, "name": "중앙마을", "name:ko": "중앙마을", "name:en": "Jungang"}}, {"type": "Feature", "geometry": {"type": "Point", "coordinates": [126.7303441, 35.728713]}, "properties": {"osmid": 8015875704, "cellid": 169, "name": "서외2마을", "name:ko": "서외2마을", "name:en": "Seooe-2"}}, {"type": "Feature", "geometry": {"type": "Point", "coordinates": [126.7288125, 35.7298735]}, "properties": {"osmid": 8015875705, "cellid": 170, "name": "서외3마을", "name:ko": "서외3마을", "name:en": "Seooe-3"}}, {"type": "Feature", "geometry": {"type": "Point", "coordinates": [126.7310314, 35.7295635]}, "properties": {"osmid": 8015875706, "cellid": 171, "name": "서문마을", "name:ko": "서문마을", "name:en": "Seomun"}}, {"type": "Feature", "geometry": {"type": "Point", "coordinates": [126.7337461, 35.7270805]}, "properties": {"osmid": 8015875707, "cellid": 172, "name": "부림마을", "name:ko": "부림마을", "name:en": "Burim"}}, {"type": "Feature", "geometry": {"type": "Point", "coordinates": [126.7284777, 35.728134]}, "properties": {"osmid": 8015875708, "cellid": 173, "name": "서외4마을", "name:ko": "서외4마을", "name:en": "Seooe-4"}}, {"type": "Feature", "geometry": {"type": "Point", "coordinates": [126.7331133, 35.724301]}, "properties": {"osmid": 8015875709, "cellid": 174, "name": "오정마을", "name:ko": "오정마을", "name:en": "Ojeong"}}, {"type": "Feature", "geometry": {"type": "Point", "coordinates": [126.7313733, 35.7249611]}, "properties": {"osmid": 8015875710, "cellid": 175, "name": "서외5마을", "name:ko": "서외5마을", "name:en": "Seooe-5"}}, {"type": "Feature", "geometry": {"type": "Point", "coordinates": [126.7300906, 35.7256162]}, "properties": {"osmid": 8015875711, "cellid": 176, "name": "서신마을", "name:ko": "서신마을", "name:en": "Seosin"}}, {"type": "Feature", "geometry": {"type": "Point", "coordinates": [126.7271829, 35.7299815]}, "properties": {"osmid": 8015875712, "cellid": 177, "name": "향교마을", "name:ko": "향교마을", "name:en": "Hyanggyo"}}, {"type": "Feature", "geometry": {"type": "Point", "coordinates": [126.7257559, 35.727963]}, "properties": {"osmid": 8015875713, "cellid": 178, "name": "서외6마을", "name:ko": "서외6마을", "name:en": "Seooe-6"}}, {"type": "Feature", "geometry": {"type": "Point", "coordinates": [126.7261718, 35.7201838]}, "properties": {"osmid": 8015875715, "cellid": 179, "name": "아제마을", "name:ko": "아제마을", "name:en": "Aje"}}, {"type": "Feature", "geometry": {"type": "Point", "coordinates": [126.7249887, 35.7174872]}, "properties": {"osmid": 8015875716, "cellid": 180, "name": "순제마을", "name:ko": "순제마을", "name:en": "Sunje"}}, {"type": "Feature", "geometry": {"type": "Point", "coordinates": [126.7456379, 35.7233606]}, "properties": {"osmid": 8015875717, "cellid": 181, "name": "봉덕마을", "name:ko": "봉덕마을", "name:en": "Bongdeok"}}, {"type": "Feature", "geometry": {"type": "Point", "coordinates": [126.7507709, 35.722345]}, "properties": {"osmid": 8015875718, "cellid": 182, "name": "수봉마을", "name:ko": "수봉마을", "name:en": "Subong"}}, {"type": "Feature", "geometry": {"type": "Point", "coordinates": [126.7362691, 35.7236112]}, "properties": {"osmid": 8015875734, "cellid": 183, "name": "송정마을", "name:ko": "송정마을", "name:en": "Songjeong"}}, {"type": "Feature", "geometry": {"type": "Point", "coordinates": [126.7378836, 35.7265752]}, "properties": {"osmid": 8015875735, "cellid": 184, "name": "송신마을", "name:ko": "송신마을", "name:en": "Songsin"}}, {"type": "Feature", "geometry": {"type": "Point", "coordinates": [126.738962, 35.7223906]}, "properties": {"osmid": 8015875736, "cellid": 185, "name": "송학마을", "name:ko": "송학마을", "name:en": "Songhak"}}, {"type": "Feature", "geometry": {"type": "Point", "coordinates": [126.7355955, 35.7161709]}, "properties": {"osmid": 8015875737, "cellid": 186, "name": "봉두마을", "name:ko": "봉두마을", "name:en": "Bongdu"}}, {"type": "Feature", "geometry": {"type": "Point", "coordinates": [126.7326451, 35.7213929]}, "properties": {"osmid": 8015875738, "cellid": 187, "name": "봉신마을", "name:ko": "봉신마을", "name:en": "Bongsin"}}, {"type": "Feature", "geometry": {"type": "Point", "coordinates": [126.7341792, 35.7182005]}, "properties": {"osmid": 8015875739, "cellid": 188, "name": "봉학마을", "name:ko": "봉학마을", "name:en": "Bonghak"}}, {"type": "Feature", "geometry": {"type": "Point", "coordinates": [126.7311826, 35.717186]}, "properties": {"osmid": 8015875741, "cellid": 189, "name": "교동마을", "name:ko": "교동마을", "name:en": "Gyodong"}}, {"type": "Feature", "geometry": {"type": "Point", "coordinates": [126.7164871, 35.7109364]}, "properties": {"osmid": 8027553810, "cellid": 190, "name": "남산마을", "name:ko": "남산마을", "name:en": "Namsan"}}, {"type": "Feature", "geometry": {"type": "Point", "coordinates": [126.7121885, 35.7097364]}, "properties": {"osmid": 8027553969, "cellid": 191, "name": "송호마을", "name:ko": "송호마을", "name:en": "Songho"}}, {"type": "Feature", "geometry": {"type": "Point", "coordinates": [126.7102329, 35.7080491]}, "properties": {"osmid": 8027553970, "cellid": 192, "name": "송서마을", "name:ko": "송서마을", "name:en": "Songseo"}}, {"type": "Feature", "geometry": {"type": "Point", "coordinates": [126.7203758, 35.721439]}, "properties": {"osmid": 8040312348, "cellid": 193, "name": "팔동마을", "name:ko": "팔동마을", "name:en": "Paldong"}}, {"type": "Feature", "geometry": {"type": "Point", "coordinates": [126.7190231, 35.7072444]}, "properties": {"osmid": 8041505328, "cellid": 194, "name": "지석마을", "name:ko": "지석마을", "name:en": "Jiseok"}}, {"type": "Feature", "geometry": {"type": "Point", "coordinates": [126.722851, 35.7048071]}, "properties": {"osmid": 8043711089, "cellid": 195, "name": "행산마을", "name:ko": "행산마을", "name:en": "Haengsan"}}, {"type": "Feature", "geometry": {"type": "Point", "coordinates": [126.7291241, 35.7045397]}, "properties": {"osmid": 8043711090, "cellid": 196, "name": "신흥마을", "name:ko": "신흥마을", "name:en": "Sinheung"}}, {"type": "Feature", "geometry": {"type": "Point", "coordinates": [126.7400454, 35.7082522]}, "properties": {"osmid": 8050664555, "cellid": 197, "name": "석동마을", "name:ko": "석동마을", "name:en": "Seokdong"}}, {"type": "Feature", "geometry": {"type": "Point", "coordinates": [126.7307163, 35.7115317]}, "properties": {"osmid": 8060802134, "cellid": 198, "name": "학당마을", "name:ko": "학당마을", "name:en": "Hakdang"}}, {"type": "Feature", "geometry": {"type": "Point", "coordinates": [126.7405303, 35.7143704]}, "properties": {"osmid": 8065695807, "cellid": 199, "name": "밖쟁갈마을", "name:ko": "밖쟁갈마을", "name:en": "Bakjaenggal"}}, {"type": "Feature", "geometry": {"type": "Point", "coordinates": [126.7416467, 35.7055106]}, "properties": {"osmid": 8067842518, "cellid": 200, "name": "상리마을", "name:ko": "상리마을", "name:en": "Sangri"}}, {"type": "Feature", "geometry": {"type": "Point", "coordinates": [126.7448941, 35.7022895]}, "properties": {"osmid": 8067842519, "cellid": 201, "name": "중리마을", "name:ko": "중리마을", "name:en": "Jungri"}}, {"type": "Feature", "geometry": {"type": "Point", "coordinates": [126.7476988, 35.7010901]}, "properties": {"osmid": 8073634275, "cellid": 202, "name": "월리마을", "name:ko": "월리마을", "name:en": "Wolri"}}]}